[{"id":"R92277","city":"กรุงเทพมหานคร/ Bangkok","area":[{"id":"R605","area":"คลองเตย/ Khlong Toei","postcode":[{"postcode":"10110","frieight":""},{"postcode":"10260","frieight":""}]},{"id":"R604","area":"คลองสาน/ Khlong San","postcode":[{"postcode":"10600","frieight":""},{"postcode":"10602","frieight":""},{"postcode":"10604","frieight":""}]},{"id":"R603","area":"คลองสามวา/ Klong Sam Wa","postcode":[{"postcode":"10510","frieight":""}]},{"id":"R591","area":"คันนายาว/ Khan Na Yao","postcode":[{"postcode":"10230","frieight":""},{"postcode":"10231","frieight":""}]},{"id":"R580","area":"จตุจักร/ Chatuchak","postcode":[{"postcode":"10900","frieight":""},{"postcode":"10901","frieight":""},{"postcode":"10902","frieight":""},{"postcode":"10903","frieight":""},{"postcode":"10904","frieight":""},{"postcode":"10905","frieight":""},{"postcode":"10906","frieight":""},{"postcode":"10907","frieight":""},{"postcode":"10908","frieight":""}]},{"id":"R590","area":"จอมทอง/ Chom Thong","postcode":[{"postcode":"10150","frieight":""}]},{"id":"R598","area":"ดอนเมือง/ Don Mueang","postcode":[{"postcode":"10210","frieight":""},{"postcode":"10211","frieight":""},{"postcode":"10213","frieight":""},{"postcode":"10215","frieight":""}]},{"id":"R582","area":"ดินแดง/ Din Daeng","postcode":[{"postcode":"10400","frieight":""}]},{"id":"R601","area":"ดุสิต/ Dusit","postcode":[{"postcode":"10300","frieight":""}]},{"id":"R2939954","area":"ตลิ่งชัน/ Taling Chan","postcode":[{"postcode":"10170","frieight":""}]},{"id":"R2939955","area":"ทวีวัฒนา/ Thawi Watthana","postcode":[{"postcode":"10170","frieight":""}]},{"id":"R3147104","area":"ทุ่งครุ/ Thung Khru","postcode":[{"postcode":"10140","frieight":""}]},{"id":"R581","area":"ธนบุรี/ Thon Buri","postcode":[{"postcode":"10600","frieight":""},{"postcode":"10601","frieight":""}]},{"id":"R2942282","area":"บางกอกน้อย/ Bangkok Noi","postcode":[{"postcode":"10700","frieight":""}]},{"id":"R2939953","area":"บางกอกใหญ่/ Bangkok Yai","postcode":[{"postcode":"10600","frieight":""},{"postcode":"10603","frieight":""},{"postcode":"10605","frieight":""}]},{"id":"R2939952","area":"บางกะปิ/ Bang Kapi","postcode":[{"postcode":"10240","frieight":""},{"postcode":"10250","frieight":""}]},{"id":"R3147313","area":"บางขุนเทียน/ Bang Khun Thian","postcode":[{"postcode":"10150","frieight":""}]},{"id":"R599","area":"บางเขน/ Bang Khen","postcode":[{"postcode":"10220","frieight":""},{"postcode":"10230","frieight":""}]},{"id":"R579","area":"บางคอแหลม/ Bang Kho Laem","postcode":[{"postcode":"10120","frieight":""}]},{"id":"R2946804","area":"บางแค/ Bang Khae","postcode":[{"postcode":"10160","frieight":""}]},{"id":"R592","area":"บางซื่อ/ Bang Sue","postcode":[{"postcode":"10800","frieight":""},{"postcode":"10801","frieight":""},{"postcode":"10802","frieight":""}]},{"id":"R583","area":"บางนา/ Bang Na","postcode":[{"postcode":"10260","frieight":""}]},{"id":"R584","area":"บางบอน/ Bang Bon","postcode":[{"postcode":"10150","frieight":""}]},{"id":"R2942281","area":"บางพลัด/ Bang Phlat","postcode":[{"postcode":"10700","frieight":""}]},{"id":"R92061","area":"บางรัก/ Bang Rak","postcode":[{"postcode":"10500","frieight":""}]},{"id":"R2946805","area":"บึงกุ่ม/ Bueng Kum","postcode":[{"postcode":"10230","frieight":""},{"postcode":"10240","frieight":""},{"postcode":"10244","frieight":""}]},{"id":"R602","area":"ปทุมวัน/ Pathum Wan","postcode":[{"postcode":"10110","frieight":""},{"postcode":"10330","frieight":""},{"postcode":"10400","frieight":""},{"postcode":"10500","frieight":""}]},{"id":"R3146414","area":"ประเวศ/ Prawet","postcode":[{"postcode":"10250","frieight":""}]},{"id":"R92058","area":"ป้อมปราบศัตรูพ่าย/ Pom Prap Sattru Phai","postcode":[{"postcode":"10100","frieight":""}]},{"id":"R588","area":"พญาไท/ Phaya Thai","postcode":[{"postcode":"10400","frieight":""}]},{"id":"R593","area":"พระโขนง/ Prakhanogn","postcode":[{"postcode":"10260","frieight":""}]},{"id":"R3146642","area":"พระนคร/ Phra Nakhon","postcode":[{"postcode":"10200","frieight":""},{"postcode":"10201","frieight":""},{"postcode":"10202","frieight":""},{"postcode":"10203","frieight":""},{"postcode":"10204","frieight":""},{"postcode":"10205","frieight":""},{"postcode":"10206","frieight":""}]},{"id":"R2946807","area":"ภาษีเจริญ/ Phasi Charoen","postcode":[{"postcode":"10160","frieight":""}]},{"id":"R3146413","area":"มีนบุรี/ Min Buri","postcode":[{"postcode":"10510","frieight":""}]},{"id":"R589","area":"ยานนาวา/ Yan Nawa","postcode":[{"postcode":"10120","frieight":""}]},{"id":"R585","area":"ราชเทวี/ Ratchathewi","postcode":[{"postcode":"10400","frieight":""}]},{"id":"R3147008","area":"ราษฏร์บูรณะ/ Rat Burana","postcode":[{"postcode":"10140","frieight":""}]},{"id":"R594","area":"ลาดกระบัง/ Lat Krabang","postcode":[{"postcode":"10520","frieight":""}]},{"id":"R586","area":"ลาดพร้าว/ Lad Phraw","postcode":[{"postcode":"10230","frieight":""}]},{"id":"R2939956","area":"วังทองหลาง/ Wang Thonglang","postcode":[{"postcode":"10310","frieight":""}]},{"id":"R2938036","area":"วัฒนา/ Vadhana","postcode":[{"postcode":"10110","frieight":""},{"postcode":"10260","frieight":""}]},{"id":"R3146643","area":"สวนหลวง/ Suan Luang","postcode":[{"postcode":"10250","frieight":""}]},{"id":"R596","area":"สะพานสูง/ Sapan Sung","postcode":[{"postcode":"10240","frieight":""},{"postcode":"10250","frieight":""}]},{"id":"R92056","area":"สัมพันธวงศ์/ Samphanthawong","postcode":[{"postcode":"10100","frieight":""}]},{"id":"R595","area":"สาทร/ Sathon","postcode":[{"postcode":"10120","frieight":""}]},{"id":"R2938035","area":"สายไหม/ Sai Mai","postcode":[{"postcode":"10220","frieight":""}]},{"id":"R2942283","area":"หนองแขม/ Nong Khaem","postcode":[{"postcode":"10160","frieight":""}]},{"id":"R3147501","area":"หนองจอก/ Nong Chok","postcode":[{"postcode":"10530","frieight":""}]},{"id":"R587","area":"หลักสี่/ Lak Si","postcode":[{"postcode":"10010","frieight":""},{"postcode":"10020","frieight":""},{"postcode":"10210","frieight":""}]},{"id":"R600","area":"ห้วยขวาง/ Huai Khwang","postcode":[{"postcode":"10310","frieight":""}]}]},{"id":"R1908779","city":"กระบี่/ Krabi","area":[{"id":"R333","area":"เกาะลันตา/ Ko Lanta","postcode":[{"postcode":"81120","frieight":""},{"postcode":"81150","frieight":""}]},{"id":"R334","area":"เขาพนม/ Khao Phanom","postcode":[{"postcode":"81140","frieight":""}]},{"id":"R335","area":"คลองท่อม/ Khlong Thom","postcode":[{"postcode":"81120","frieight":""},{"postcode":"81170","frieight":""}]},{"id":"R336","area":"ปลายพระยา/ Plai Phraya","postcode":[{"postcode":"81160","frieight":""}]},{"id":"R332","area":"เมืองกระบี่/ Mueang Krabi","postcode":[{"postcode":"81000","frieight":""},{"postcode":"81180","frieight":""},{"postcode":"81210","frieight":""}]},{"id":"R337","area":"ลำทับ/ Lam Thap","postcode":[{"postcode":"81190","frieight":""}]},{"id":"R338","area":"เหนือคลอง/ Nuea Khlong","postcode":[{"postcode":"81130","frieight":""}]},{"id":"R331","area":"อ่าวลึก/ Ao Luek","postcode":[{"postcode":"81110","frieight":""}]}]},{"id":"R1908777","city":"กาญจนบุรี/ Kanchanaburi","area":[{"id":"R88","area":"ด่านมะขามเตี้ย/ Dan Makham Tia District","postcode":[{"postcode":"71260","frieight":""}]},{"id":"R81","area":"ทองผาภูมิ/ Thong Pha Phum","postcode":[{"postcode":"71180","frieight":""}]},{"id":"R82","area":"ท่าม่วง/ Tha Muang","postcode":[{"postcode":"71000","frieight":""},{"postcode":"71110","frieight":""},{"postcode":"71130","frieight":""}]},{"id":"R79","area":"ท่ามะกา/ Tha Maka","postcode":[{"postcode":"70190","frieight":""},{"postcode":"71120","frieight":""},{"postcode":"71130","frieight":""}]},{"id":"R80","area":"ไทรโยค/ Sai Yok","postcode":[{"postcode":"71150","frieight":""}]},{"id":"R83","area":"บ่อพลอย/ Bo Phloi","postcode":[{"postcode":"71160","frieight":""},{"postcode":"71220","frieight":""}]},{"id":"R76","area":"พนมทวน/ Phanom Thuan","postcode":[{"postcode":"71140","frieight":""},{"postcode":"71170","frieight":""}]},{"id":"R87","area":"เมืองกาญจนบุรี/ Mueang Kanchanaburi","postcode":[{"postcode":"71000","frieight":""},{"postcode":"71190","frieight":""}]},{"id":"R84","area":"เลาขวัญ/ Lao Khwan","postcode":[{"postcode":"71210","frieight":""}]},{"id":"R85","area":"ศรีสวัสดิ์/ Si Sawat","postcode":[{"postcode":"71220","frieight":""},{"postcode":"71250","frieight":""}]},{"id":"R86","area":"สังขละบุรี/ Sangkhla Buri","postcode":[{"postcode":"71240","frieight":""}]},{"id":"R77","area":"หนองปรือ/ Nong Prue","postcode":[{"postcode":"71220","frieight":""}]},{"id":"R78","area":"ห้วยกระเจา/ Huai Krachao","postcode":[{"postcode":"71170","frieight":""}]}]},{"id":"R1908775","city":"กาฬสินธุ์/ Kalasin","area":[{"id":"R764","area":"กมลาไสย/ Kamalasai","postcode":[{"postcode":"46130","frieight":""}]},{"id":"R755","area":"กุฉินารายณ์/ Kuchinarai","postcode":[{"postcode":"46110","frieight":""}]},{"id":"R765","area":"เขาวง/ Khao Wong","postcode":[{"postcode":"46160","frieight":""}]},{"id":"R769","area":"คำม่วง/ Kham Muang","postcode":[{"postcode":"46180","frieight":""}]},{"id":"R772","area":"ฆ้องชัย/ Khong Chai","postcode":[{"postcode":"46130","frieight":""}]},{"id":"R763","area":"ดอนจาน/ Don Chan","postcode":[{"postcode":"46000","frieight":""}]},{"id":"R756","area":"ท่าคันโท/ Tha Khantho","postcode":[{"postcode":"46190","frieight":""}]},{"id":"R760","area":"นาคู/ Na Khu","postcode":[{"postcode":"46160","frieight":""}]},{"id":"R757","area":"นามน/ Na Mon","postcode":[{"postcode":"46230","frieight":""}]},{"id":"R761","area":"เมืองกาฬสินธุ์/ Mueang Kalasin","postcode":[{"postcode":"46000","frieight":""}]},{"id":"R770","area":"ยางตลาด/ Yang Talat","postcode":[{"postcode":"46120","frieight":""}]},{"id":"R758","area":"ร่องคำ/ Rong Kham","postcode":[{"postcode":"46210","frieight":""}]},{"id":"R771","area":"สมเด็จ/ Somdet","postcode":[{"postcode":"46150","frieight":""}]},{"id":"R762","area":"สหัสขันธ์/ Sahatsakhan","postcode":[{"postcode":"46140","frieight":""}]},{"id":"R768","area":"สามชัย/ Sam Chai","postcode":[{"postcode":"46180","frieight":""}]},{"id":"R766","area":"หนองกุงศรี/ Nong Kung Si","postcode":[{"postcode":"46220","frieight":""}]},{"id":"R767","area":"ห้วยผึ้ง/ Huai Phueng","postcode":[{"postcode":"46240","frieight":""}]},{"id":"R759","area":"ห้วยเม็ก/ Huai Mek","postcode":[{"postcode":"46170","frieight":""}]}]},{"id":"R1908776","city":"กำแพงเพชร/ Kamphaeng Phet","area":[{"id":"R115","area":"โกสัมพีนคร/ Kosamphi Nakhon","postcode":[{"postcode":"62000","frieight":""}]},{"id":"R111","area":"ขาณุวรลักษบุรี/ Khanu Woralaksaburi","postcode":[{"postcode":"62130","frieight":""},{"postcode":"62140","frieight":""}]},{"id":"R105","area":"คลองขลุง/ Khlong Khlung","postcode":[{"postcode":"62120","frieight":""}]},{"id":"R106","area":"คลองลาน/ Khlong Lan","postcode":[{"postcode":"62180","frieight":""}]},{"id":"R112","area":"ทรายทองวัฒนา/ Sai Thong Watthana","postcode":[{"postcode":"62190","frieight":""}]},{"id":"R107","area":"ไทรงาม/ Sai Ngam","postcode":[{"postcode":"62150","frieight":""}]},{"id":"R109","area":"บึงสามัคคี/ Bueng Samakkhi","postcode":[{"postcode":"62210","frieight":""}]},{"id":"R113","area":"ปางศิลาทอง/ Pang Sila Thong","postcode":[{"postcode":"62120","frieight":""}]},{"id":"R108","area":"พรานกระต่าย/ Phran Kratai","postcode":[{"postcode":"62110","frieight":""}]},{"id":"R110","area":"เมืองกำแพงเพชร/ Mueang Kamphaeng Phet","postcode":[{"postcode":"62000","frieight":""},{"postcode":"62160","frieight":""}]},{"id":"R114","area":"ลานกระบือ/ Lan Krabue","postcode":[{"postcode":"62170","frieight":""}]}]},{"id":"R1908778","city":"ขอนแก่น/ Khon Kaen","area":[{"id":"R819","area":"กระนวน/ Kranuan","postcode":[{"postcode":"40170","frieight":""}]},{"id":"R838","area":"เขาสวนกวาง/ Khao Suan Kwang","postcode":[{"postcode":"40280","frieight":""}]},{"id":"R844","area":"โคกโพธิ์ไชย/ Khok Pho Chai","postcode":[{"postcode":"40160","frieight":""}]},{"id":"R840","area":"ชนบท/ Chonnabot","postcode":[{"postcode":"40180","frieight":""}]},{"id":"R830","area":"ชำสูง/ Sam Sung","postcode":[{"postcode":"40170","frieight":""}]},{"id":"R825","area":"ชุมแพ/ Chum Phae","postcode":[{"postcode":"40130","frieight":""},{"postcode":"40290","frieight":""}]},{"id":"R843","area":"ซำสูง/ Sam Sung","postcode":[]},{"id":"R820","area":"น้ำพอง/ Nam Phong","postcode":[{"postcode":"40140","frieight":""},{"postcode":"40310","frieight":""}]},{"id":"R829","area":"โนนศิลา/ Non Sila","postcode":[{"postcode":"40110","frieight":""}]},{"id":"R831","area":"บ้านไผ่/ Ban Phai","postcode":[{"postcode":"40110","frieight":""}]},{"id":"R832","area":"บ้านฝาง/ Ban Fang","postcode":[{"postcode":"40270","frieight":""}]},{"id":"R842","area":"บ้านแฮด/ Ban Haet","postcode":[{"postcode":"40110","frieight":""}]},{"id":"R833","area":"เปือยน้อย/ Pueai Noi","postcode":[{"postcode":"40340","frieight":""}]},{"id":"R834","area":"พระยืน/ Phra Yuen","postcode":[{"postcode":"40320","frieight":""}]},{"id":"R821","area":"พล/ Phon","postcode":[{"postcode":"40120","frieight":""}]},{"id":"R827","area":"ภูผาม่าน/ Phu Pha Man","postcode":[{"postcode":"40350","frieight":""}]},{"id":"R826","area":"ภูเวียง/ Phu Wiang","postcode":[{"postcode":"40150","frieight":""}]},{"id":"R835","area":"มัญจาคีรี/ Mancha Khiri","postcode":[{"postcode":"40160","frieight":""}]},{"id":"R824","area":"เมืองขอนแก่น/ Mueang Khon Kaen","postcode":[{"postcode":"40000","frieight":""},{"postcode":"40002","frieight":""},{"postcode":"40260","frieight":""}]},{"id":"R80199931","area":"เวียงเก่า/Wiang Gao","postcode":[{"postcode":"40150","frieight":""}]},{"id":"R841","area":"แวงน้อย/ Waeng Noi","postcode":[{"postcode":"40230","frieight":""}]},{"id":"R822","area":"แวงใหญ่/ Waeng Yai","postcode":[{"postcode":"40330","frieight":""}]},{"id":"R823","area":"สีชมพู/ Si Chomphu","postcode":[{"postcode":"40220","frieight":""}]},{"id":"R839","area":"หนองนาคำ/ Nong Na Kham","postcode":[{"postcode":"40150","frieight":""}]},{"id":"R837","area":"หนองเรือ/ Nong Ruea","postcode":[{"postcode":"40210","frieight":""},{"postcode":"40240","frieight":""}]},{"id":"R836","area":"หนองสองห้อง/ Nong Song Hong","postcode":[{"postcode":"40190","frieight":""}]},{"id":"R828","area":"อุบลรัตน์/ Ubolratana","postcode":[{"postcode":"40250","frieight":""}]}]},{"id":"R1908770","city":"จันทบุรี/ Chanthaburi","area":[{"id":"R658","area":"แก่งหางแมว/ Kaeng Hang Maeo","postcode":[{"postcode":"22160","frieight":""}]},{"id":"R651","area":"ขลุง/ Khlung","postcode":[{"postcode":"22110","frieight":""},{"postcode":"22150","frieight":""}]},{"id":"R660","area":"เขาคิชฌกูฏ/ Khao Khitchakut","postcode":[{"postcode":"22210","frieight":""}]},{"id":"R652","area":"ท่าใหม่/ Tha Mai","postcode":[{"postcode":"22120","frieight":""},{"postcode":"22170","frieight":""}]},{"id":"R653","area":"นายายอาม/ Na Yai Am","postcode":[{"postcode":"22160","frieight":""},{"postcode":"22170","frieight":""}]},{"id":"R654","area":"โป่งน้ำร้อน/ Pong Nam Ron","postcode":[{"postcode":"22140","frieight":""}]},{"id":"R655","area":"มะขาม/ Makham","postcode":[{"postcode":"22150","frieight":""}]},{"id":"R657","area":"เมืองจันทบุรี/ Mueang Chanthaburi","postcode":[{"postcode":"22000","frieight":""}]},{"id":"R656","area":"สอยดาว/ Soi Dao","postcode":[{"postcode":"22180","frieight":""}]},{"id":"R659","area":"แหลมสิงห์/ Laem Sing","postcode":[{"postcode":"22120","frieight":""},{"postcode":"22130","frieight":""},{"postcode":"22190","frieight":""}]}]},{"id":"R1908767","city":"ฉะเชิงเทรา/ Chachoengsao","area":[{"id":"R812","area":"คลองเขื่อน/ Khlong Khuean","postcode":[{"postcode":"24000","frieight":""},{"postcode":"24110","frieight":""}]},{"id":"R811","area":"ท่าตะเกียบ/ Tha Takiap","postcode":[{"postcode":"24160","frieight":""}]},{"id":"R808","area":"บางคล้า/ Bang Khla","postcode":[{"postcode":"24110","frieight":""}]},{"id":"R818","area":"บางน้ำเปรี้ยว/ Bang Nam Priao","postcode":[{"postcode":"24000","frieight":""},{"postcode":"24150","frieight":""},{"postcode":"24170","frieight":""}]},{"id":"R809","area":"บางปะกง/ Bang Pakong","postcode":[{"postcode":"24130","frieight":""}]},{"id":"R815","area":"บ้านโพธิ์/ Ban Pho","postcode":[{"postcode":"24140","frieight":""}]},{"id":"R816","area":"แปลงยาว/ Plaeng Yao","postcode":[{"postcode":"24190","frieight":""}]},{"id":"R810","area":"พนมสารคาม/ Phanom Sarakham","postcode":[{"postcode":"24120","frieight":""}]},{"id":"R814","area":"เมืองฉะเชิงเทรา/ Mueang Chachoengsao","postcode":[{"postcode":"24000","frieight":""},{"postcode":"24001","frieight":""}]},{"id":"R813","area":"ราชสาส์น/ Ratchasan","postcode":[{"postcode":"24120","frieight":""}]},{"id":"R817","area":"สนามชัยเขต/ Sanam Chai Khet","postcode":[{"postcode":"24160","frieight":""}]}]},{"id":"R1908773","city":"ชลบุรี/ Chonburi","area":[{"id":"R460","area":"เกาะจันทร์/ Ko Chan","postcode":[{"postcode":"20240","frieight":""}]},{"id":"R462","area":"เกาะสีชัง/ Ko Si  Chang","postcode":[{"postcode":"20120","frieight":""}]},{"id":"R458","area":"บ่อทอง/ Bo Thong","postcode":[{"postcode":"20270","frieight":""}]},{"id":"R456","area":"บางละมุง/ Bang Lamung","postcode":[{"postcode":"20150","frieight":""}]},{"id":"R457","area":"บ้านบึง/ Ban Bueng","postcode":[{"postcode":"20170","frieight":""},{"postcode":"20220","frieight":""}]},{"id":"R453","area":"พนัสนิคม/ Phanat Nikhom","postcode":[{"postcode":"20140","frieight":""},{"postcode":"20240","frieight":""}]},{"id":"R452","area":"พานทอง/ Phan Thong","postcode":[{"postcode":"20000","frieight":""},{"postcode":"20160","frieight":""}]},{"id":"R461","area":"เมืองชลบุรี/ Mueang Chon Buri","postcode":[{"postcode":"20000","frieight":""},{"postcode":"20130","frieight":""},{"postcode":"20131","frieight":""}]},{"id":"R454","area":"ศรีราชา/ Si Racha","postcode":[{"postcode":"20110","frieight":""},{"postcode":"20111","frieight":""},{"postcode":"20230","frieight":""},{"postcode":"20231","frieight":""},{"postcode":"20232","frieight":""}]},{"id":"R455","area":"สัตหีบ/ Sattahip","postcode":[{"postcode":"20180","frieight":""},{"postcode":"20250","frieight":""},{"postcode":"20251","frieight":""}]},{"id":"R459","area":"หนองใหญ่/ Nong Yai","postcode":[{"postcode":"20190","frieight":""}]}]},{"id":"R1908768","city":"ชัยนาท/ Chainat","area":[{"id":"R754","area":"เนินขาม/ Noen Kham","postcode":[{"postcode":"17130","frieight":""}]},{"id":"R748","area":"มโนรมย์/ Manorom","postcode":[{"postcode":"17110","frieight":""},{"postcode":"17170","frieight":""}]},{"id":"R747","area":"เมืองชัยนาท/ Mueang Chai Nat","postcode":[{"postcode":"17000","frieight":""},{"postcode":"17120","frieight":""}]},{"id":"R749","area":"วัดสิงห์/ Wat Sing","postcode":[{"postcode":"17120","frieight":""}]},{"id":"R750","area":"สรรคบุรี/ Sankhaburi","postcode":[{"postcode":"17140","frieight":""}]},{"id":"R751","area":"สรรพยา/ Sapphaya","postcode":[{"postcode":"17150","frieight":""},{"postcode":"17160","frieight":""}]},{"id":"R753","area":"หนองมะโมง/ Nong Mamong","postcode":[{"postcode":"17120","frieight":""}]},{"id":"R752","area":"หันคา/ Hankha","postcode":[{"postcode":"17130","frieight":""},{"postcode":"17160","frieight":""}]}]},{"id":"R1908769","city":"ชัยภูมิ/ Chaiyaphum","area":[{"id":"R792","area":"เกษตรสมบูรณ์/ Kaset Sombun","postcode":[{"postcode":"36120","frieight":""}]},{"id":"R798","area":"แก้งคร้อ/ Kaeng Khro","postcode":[{"postcode":"36150","frieight":""}]},{"id":"R793","area":"คอนสวรรค์/ Khon Sawan","postcode":[{"postcode":"36140","frieight":""}]},{"id":"R794","area":"คอนสาร/ Khon San","postcode":[{"postcode":"36180","frieight":""}]},{"id":"R807","area":"จัตุรัส/ Chatturat","postcode":[{"postcode":"36130","frieight":""},{"postcode":"36220","frieight":""}]},{"id":"R800","area":"ซับใหญ่/ Sap Yai","postcode":[{"postcode":"36130","frieight":""}]},{"id":"R802","area":"เทพสถิต/ Thep Sathit","postcode":[{"postcode":"36230","frieight":""}]},{"id":"R803","area":"เนินสง่า/ Noen Sa-Nga","postcode":[{"postcode":"36130","frieight":""}]},{"id":"R801","area":"บ้านเขว้า/ Ban Khwao","postcode":[{"postcode":"36170","frieight":""}]},{"id":"R804","area":"บ้านแท่น/ Ban Thaen","postcode":[{"postcode":"36190","frieight":""}]},{"id":"R797","area":"บำเหน็จณรงค์/ Bamnet Narong","postcode":[{"postcode":"36160","frieight":""},{"postcode":"36220","frieight":""}]},{"id":"R795","area":"ภักดีชุมพล/ Phakdi Chumphon","postcode":[{"postcode":"36260","frieight":""}]},{"id":"R805","area":"ภูเขียว/ Phu Khiao","postcode":[{"postcode":"36110","frieight":""}]},{"id":"R796","area":"เมืองชัยภูมิ/ Mueang Chaiyaphum","postcode":[{"postcode":"36000","frieight":""},{"postcode":"36240","frieight":""}]},{"id":"R806","area":"หนองบัวแดง/ Nong Bua Daeng","postcode":[{"postcode":"36210","frieight":""}]},{"id":"R799","area":"หนองบัวระเหว/ Nong Bua Rawe","postcode":[{"postcode":"36250","frieight":""}]}]},{"id":"R1908774","city":"ชุมพร/ Chumphon","area":[{"id":"R685","area":"ท่าแซะ/ Tha Sae","postcode":[{"postcode":"86140","frieight":""},{"postcode":"86190","frieight":""}]},{"id":"R686","area":"ทุ่งตะโก/ Thung Tako","postcode":[{"postcode":"86220","frieight":""}]},{"id":"R680","area":"ปะทิว/ Pathio","postcode":[{"postcode":"86160","frieight":""},{"postcode":"86210","frieight":""},{"postcode":"86230","frieight":""}]},{"id":"R681","area":"พะโต๊ะ/ Phato","postcode":[{"postcode":"86180","frieight":""}]},{"id":"R687","area":"เมือง/ Mueang","postcode":[]},{"id":"R688","area":"เมืองชุมพร/ Mueang Chumphon","postcode":[{"postcode":"86000","frieight":""},{"postcode":"86100","frieight":""},{"postcode":"86120","frieight":""},{"postcode":"86190","frieight":""}]},{"id":"R682","area":"ละแม/ Lamae","postcode":[{"postcode":"86170","frieight":""}]},{"id":"R683","area":"สวี/ Sawi","postcode":[{"postcode":"86130","frieight":""}]},{"id":"R684","area":"หลังสวน/ Lang Suan","postcode":[{"postcode":"86110","frieight":""},{"postcode":"86150","frieight":""}]}]},{"id":"R1908772","city":"เชียงราย/ Chiang Rai","area":[{"id":"R667","area":"ขุนตาล/ Khun Tan","postcode":[{"postcode":"57340","frieight":""}]},{"id":"R675","area":"เชียงของ/ Chiang Khong","postcode":[{"postcode":"57140","frieight":""}]},{"id":"R662","area":"เชียงแสน/ Chiang Saen","postcode":[{"postcode":"57150","frieight":""}]},{"id":"R679","area":"ดอยหลวง/ Doi Luang","postcode":[{"postcode":"57110","frieight":""}]},{"id":"R668","area":"เทิง/ Thoeng","postcode":[{"postcode":"57160","frieight":""},{"postcode":"57230","frieight":""}]},{"id":"R676","area":"ป่าแดด/ Pa Daet","postcode":[{"postcode":"57190","frieight":""}]},{"id":"R678","area":"พญาเม็งราย/ Phaya Mengra District i","postcode":[{"postcode":"57290","frieight":""}]},{"id":"R669","area":"พาน/ Phan","postcode":[{"postcode":"57120","frieight":""},{"postcode":"57250","frieight":""},{"postcode":"57280","frieight":""}]},{"id":"R666","area":"เมืองเชียงราย/ Mueang Chiang Rai","postcode":[{"postcode":"57000","frieight":""},{"postcode":"57100","frieight":""}]},{"id":"R670","area":"แม่จัน/ Mae Chan","postcode":[{"postcode":"57110","frieight":""},{"postcode":"57240","frieight":""},{"postcode":"57270","frieight":""}]},{"id":"R671","area":"แม่ฟ้าหลวง/ Mae Fa Luang","postcode":[{"postcode":"57110","frieight":""},{"postcode":"57240","frieight":""}]},{"id":"R664","area":"แม่ลาว/ Mae Lao","postcode":[{"postcode":"57000","frieight":""},{"postcode":"57250","frieight":""}]},{"id":"R673","area":"แม่สรวย/ Mae Suai","postcode":[{"postcode":"57180","frieight":""}]},{"id":"R663","area":"แม่สาย/ Mae Sai","postcode":[{"postcode":"57130","frieight":""},{"postcode":"57220","frieight":""}]},{"id":"R677","area":"เวียงแก่น/ Wiang Kaen","postcode":[{"postcode":"57310","frieight":""}]},{"id":"R672","area":"เวียงชัย/ Wiang Chai","postcode":[{"postcode":"57210","frieight":""}]},{"id":"R665","area":"เวียงเชียงรุ้ง/ Wiang Chiang Rung","postcode":[{"postcode":"57210","frieight":""}]},{"id":"R674","area":"เวียงป่าเป้า/ Wiang Pa Pao","postcode":[{"postcode":"57170","frieight":""},{"postcode":"57260","frieight":""}]}]},{"id":"R1908771","city":"เชียงใหม่/ Chiang Mai","area":[{"id":"R220","area":"กัลยาณิวัฒนา/ Ganlayaniwattana","postcode":[{"postcode":"58130","frieight":""}]},{"id":"R225","area":"จอมทอง/ Chom Thong","postcode":[{"postcode":"50160","frieight":""},{"postcode":"50240","frieight":""}]},{"id":"R222","area":"เชียงดาว/ Chiang Dao","postcode":[{"postcode":"50170","frieight":""}]},{"id":"R207","area":"ไชยปราการ/ Chai Prakan","postcode":[{"postcode":"50320","frieight":""}]},{"id":"R214","area":"ดอยเต่า/ Doi Tao","postcode":[{"postcode":"50260","frieight":""}]},{"id":"R208","area":"ดอยสะเก็ด/ Doi Saket","postcode":[{"postcode":"50220","frieight":""}]},{"id":"R215","area":"ดอยหล่อ/ Doi Lo","postcode":[{"postcode":"50160","frieight":""}]},{"id":"R209","area":"ฝาง/ Fang","postcode":[{"postcode":"50110","frieight":""},{"postcode":"50320","frieight":""}]},{"id":"R210","area":"พร้าว/ Phrao","postcode":[{"postcode":"50190","frieight":""}]},{"id":"R221","area":"เมืองเชียงใหม่/ Mueang Chiang Mai","postcode":[{"postcode":"50000","frieight":""},{"postcode":"50100","frieight":""},{"postcode":"50200","frieight":""},{"postcode":"50290","frieight":""},{"postcode":"50300","frieight":""}]},{"id":"R223","area":"แม่แจ่ม/ Mae Chaem","postcode":[{"postcode":"50270","frieight":""}]},{"id":"R203","area":"แม่แตง/ Mae Taeng","postcode":[{"postcode":"50150","frieight":""},{"postcode":"50330","frieight":""}]},{"id":"R224","area":"แม่ริม/ Mae Rim","postcode":[{"postcode":"50180","frieight":""},{"postcode":"50330","frieight":""}]},{"id":"R226","area":"แม่วาง/ Mae Wang","postcode":[{"postcode":"50360","frieight":""}]},{"id":"R217","area":"แม่ออน/ Mae On","postcode":[{"postcode":"50130","frieight":""}]},{"id":"R216","area":"แม่อาย/ Mae Ai","postcode":[{"postcode":"50280","frieight":""}]},{"id":"R218","area":"เวียงแหง/ Wiang Haeng","postcode":[{"postcode":"50350","frieight":""}]},{"id":"R211","area":"สะเมิง/ Samoeng","postcode":[{"postcode":"50250","frieight":""}]},{"id":"R212","area":"สันกำแพง/ San Kamphaeng","postcode":[{"postcode":"50130","frieight":""}]},{"id":"R204","area":"สันทราย/ San Sai","postcode":[{"postcode":"50210","frieight":""},{"postcode":"50290","frieight":""}]},{"id":"R205","area":"สันป่าตอง/ San Pa Tong","postcode":[{"postcode":"50120","frieight":""}]},{"id":"R219","area":"สารภี/ Saraphi","postcode":[{"postcode":"50140","frieight":""}]},{"id":"R206","area":"หางดง/ Hang Dong","postcode":[{"postcode":"50230","frieight":""},{"postcode":"50340","frieight":""}]},{"id":"R213","area":"อมก๋อย/ Omkoi","postcode":[{"postcode":"50310","frieight":""}]},{"id":"R227","area":"ฮอด/ Hot","postcode":[{"postcode":"50240","frieight":""}]}]},{"id":"R1908828","city":"ตรัง/ Trang","area":[{"id":"R570","area":"กันตัง/ Kantang","postcode":[{"postcode":"92110","frieight":""}]},{"id":"R574","area":"นาโยง/ Na Yong","postcode":[{"postcode":"92000","frieight":""},{"postcode":"92170","frieight":""}]},{"id":"R571","area":"ปะเหลียน/ Palian","postcode":[{"postcode":"92120","frieight":""},{"postcode":"92140","frieight":""},{"postcode":"92180","frieight":""}]},{"id":"R575","area":"เมืองตรัง/ Mueang Trang","postcode":[{"postcode":"92000","frieight":""},{"postcode":"92170","frieight":""},{"postcode":"92190","frieight":""}]},{"id":"R572","area":"ย่านตาขาว/ Yan Ta Khao","postcode":[{"postcode":"92140","frieight":""}]},{"id":"R573","area":"รัษฎา/ Ratsada","postcode":[{"postcode":"92130","frieight":""},{"postcode":"92160","frieight":""},{"postcode":"92170","frieight":""}]},{"id":"R577","area":"วังวิเศษ/ Wang Wiset","postcode":[{"postcode":"92000","frieight":""},{"postcode":"92220","frieight":""}]},{"id":"R569","area":"สิเกา/ Sikao","postcode":[{"postcode":"92000","frieight":""},{"postcode":"92150","frieight":""}]},{"id":"R576","area":"ห้วยยอด/ Huai Yot","postcode":[{"postcode":"92130","frieight":""},{"postcode":"92190","frieight":""},{"postcode":"92210","frieight":""}]},{"id":"R578","area":"หาดสำราญ/ Hat Samran","postcode":[{"postcode":"92120","frieight":""}]}]},{"id":"R1908829","city":"ตราด/ Trat","area":[{"id":"R231","area":"เกาะกูด/ Ko Kut","postcode":[{"postcode":"23000","frieight":""},{"postcode":"23120","frieight":""}]},{"id":"R233","area":"เกาะช้าง/ Ko Chang","postcode":[{"postcode":"23170","frieight":""}]},{"id":"R234","area":"เขาสมิง/ Khao Saming","postcode":[{"postcode":"23130","frieight":""},{"postcode":"23150","frieight":""}]},{"id":"R235","area":"คลองใหญ่/ Khlong Yai","postcode":[{"postcode":"23110","frieight":""}]},{"id":"R236","area":"บ่อไร่/ Bo Rai","postcode":[{"postcode":"23140","frieight":""}]},{"id":"R232","area":"เมืองตราด/ Mueang Trat","postcode":[{"postcode":"23000","frieight":""}]},{"id":"R237","area":"แหลมงอบ/ Laem Ngop","postcode":[{"postcode":"23120","frieight":""}]}]},{"id":"R1908827","city":"ตาก/ Tak","area":[{"id":"R424","area":"ท่าสองยาง/ Tha Song Yang","postcode":[{"postcode":"63150","frieight":""}]},{"id":"R425","area":"บ้านตาก/ Ban Tak","postcode":[{"postcode":"63120","frieight":""}]},{"id":"R426","area":"พบพระ/ Phop Phra","postcode":[{"postcode":"63160","frieight":""}]},{"id":"R428","area":"เมืองตาก/ Mueang Tak","postcode":[{"postcode":"63000","frieight":""}]},{"id":"R429","area":"แม่ระมาด/ Mae Ramat","postcode":[{"postcode":"63140","frieight":""}]},{"id":"R422","area":"แม่สอด/ Mae Sot","postcode":[{"postcode":"63110","frieight":""}]},{"id":"R423","area":"วังเจ้า/ Wang Chao","postcode":[{"postcode":"63000","frieight":""}]},{"id":"R430","area":"สามเงา/ Sam Ngao","postcode":[{"postcode":"63130","frieight":""}]},{"id":"R427","area":"อุ้มผาง/ Umphang","postcode":[{"postcode":"63170","frieight":""}]}]},{"id":"R1908787","city":"นครนายก/ Nakhon Nayok","area":[{"id":"R845","area":"บ้านนา/ Ban Na","postcode":[{"postcode":"26110","frieight":""}]},{"id":"R846","area":"ปากพลี/ Pak Phli","postcode":[{"postcode":"26130","frieight":""}]},{"id":"R848","area":"เมืองนครนายก/ Mueang Nakhon Nayok","postcode":[{"postcode":"26000","frieight":""},{"postcode":"26001","frieight":""}]},{"id":"R847","area":"องครักษ์/ Ongkharak","postcode":[{"postcode":"26120","frieight":""}]}]},{"id":"R1908788","city":"นครปฐม/ Nakhon Pathom","area":[{"id":"R394","area":"กำแพงแสน/ Kamphaeng Saen","postcode":[{"postcode":"73140","frieight":""},{"postcode":"73180","frieight":""}]},{"id":"R395","area":"ดอนตูม/ Don Tum","postcode":[{"postcode":"73150","frieight":""}]},{"id":"R396","area":"นครชัยศรี/ Nakhon Chai Si","postcode":[{"postcode":"73120","frieight":""}]},{"id":"R397","area":"บางเลน/ Bang Len","postcode":[{"postcode":"73130","frieight":""},{"postcode":"73190","frieight":""}]},{"id":"R398","area":"พุทธมณฑล/ Phutthamonthon","postcode":[{"postcode":"73170","frieight":""}]},{"id":"R393","area":"เมืองนครปฐม/ Mueang Nakhon Pathom","postcode":[{"postcode":"73000","frieight":""}]},{"id":"R399","area":"สามพราน/ Sam Phran","postcode":[{"postcode":"73110","frieight":""},{"postcode":"73160","frieight":""},{"postcode":"73210","frieight":""},{"postcode":"73220","frieight":""}]}]},{"id":"R1908789","city":"นครพนม/ Nakhon Phanom","area":[{"id":"R346","area":"ท่าอุเทน/ Tha Uthen","postcode":[{"postcode":"48120","frieight":""}]},{"id":"R347","area":"ธาตุพนม/ That Phanom","postcode":[{"postcode":"48110","frieight":""}]},{"id":"R348","area":"นาแก/ Na Kae","postcode":[{"postcode":"48130","frieight":""}]},{"id":"R350","area":"นาทม/ Na Thom","postcode":[{"postcode":"48140","frieight":""}]},{"id":"R339","area":"นาหว้า/ Na Wa","postcode":[{"postcode":"48180","frieight":""}]},{"id":"R340","area":"บ้านแพง/ Ban Phaeng","postcode":[{"postcode":"48140","frieight":""}]},{"id":"R341","area":"ปลาปาก/ Pla Pak","postcode":[{"postcode":"48160","frieight":""}]},{"id":"R342","area":"โพนสวรรค์/ Phon Sawan","postcode":[{"postcode":"48190","frieight":""}]},{"id":"R345","area":"เมืองนครพนม/ Mueng Nakornpanom","postcode":[{"postcode":"48000","frieight":""}]},{"id":"R343","area":"เรณูนคร/ Renu Nakhon","postcode":[{"postcode":"48170","frieight":""}]},{"id":"R349","area":"วังยาง/ Wang Yang","postcode":[{"postcode":"48130","frieight":""}]},{"id":"R344","area":"ศรีสงคราม/ Si Songkhram","postcode":[{"postcode":"48150","frieight":""}]}]},{"id":"R1908790","city":"นครราชสีมา/ Nakhon Ratchasima","area":[{"id":"R124","area":"แก้งสนามนาง/ Kaeng Sanam Nang","postcode":[{"postcode":"30440","frieight":""}]},{"id":"R125","area":"ขามทะเลสอ/ Kham Thale So","postcode":[{"postcode":"30280","frieight":""}]},{"id":"R145","area":"ขามสะแกแสง/ Kham Sakaesaeng","postcode":[{"postcode":"30290","frieight":""}]},{"id":"R137","area":"คง/ Khong","postcode":[{"postcode":"30260","frieight":""}]},{"id":"R146","area":"ครบุรี/ Khon Buri","postcode":[{"postcode":"30250","frieight":""}]},{"id":"R139","area":"จักราช/ Chakkarat","postcode":[{"postcode":"30230","frieight":""}]},{"id":"R147","area":"เฉลิมพระเกียรติ/ Chaloem Phra Kiat","postcode":[{"postcode":"30000","frieight":""},{"postcode":"30230","frieight":""}]},{"id":"R118","area":"ชุมพวง/ Chum Phuang","postcode":[{"postcode":"30270","frieight":""}]},{"id":"R119","area":"โชคชัย/ Chok Chai","postcode":[{"postcode":"30190","frieight":""}]},{"id":"R126","area":"ด่านขุนทด/ Dan Khun Thot","postcode":[{"postcode":"30210","frieight":""},{"postcode":"36220","frieight":""}]},{"id":"R144","area":"เทพารักษ์/ Thepharak","postcode":[{"postcode":"30210","frieight":""}]},{"id":"R140","area":"โนนแดง/ Non Daeng","postcode":[{"postcode":"30360","frieight":""}]},{"id":"R138","area":"โนนไทย/ Non Thai","postcode":[{"postcode":"30220","frieight":""}]},{"id":"R141","area":"โนนสูง/ Non Sung","postcode":[{"postcode":"30160","frieight":""},{"postcode":"30420","frieight":""}]},{"id":"R136","area":"บัวลาย/ Bua Lai","postcode":[{"postcode":"30120","frieight":""}]},{"id":"R142","area":"บัวใหญ่/ Bua Yai","postcode":[{"postcode":"30120","frieight":""}]},{"id":"R132","area":"บ้านเหลื่อม/ Ban Lueam","postcode":[{"postcode":"30350","frieight":""}]},{"id":"R143","area":"ประทาย/ Prathai","postcode":[{"postcode":"30180","frieight":""}]},{"id":"R128","area":"ปักธงชัย/ Pak Thong Chai","postcode":[{"postcode":"30150","frieight":""}]},{"id":"R120","area":"ปากช่อง/ Pak Chong","postcode":[{"postcode":"30130","frieight":""},{"postcode":"30320","frieight":""}]},{"id":"R134","area":"พระทองคำ/ Phra Thong Kham","postcode":[{"postcode":"30220","frieight":""}]},{"id":"R131","area":"พิมาย/ Phimai","postcode":[{"postcode":"30110","frieight":""}]},{"id":"R130","area":"เมืองนครราชสีมา/ Mueng Nakorn Ratchasima","postcode":[{"postcode":"30000","frieight":""},{"postcode":"30280","frieight":""},{"postcode":"30310","frieight":""}]},{"id":"R122","area":"เมืองยาง/ Mueang Yang","postcode":[{"postcode":"30270","frieight":""}]},{"id":"R123","area":"ลำทะเมนชัย/ Lam Thamenchai","postcode":[{"postcode":"30270","frieight":""}]},{"id":"R121","area":"วังน้ำเขียว/ Wang Nam Khiao","postcode":[{"postcode":"30150","frieight":""},{"postcode":"30370","frieight":""}]},{"id":"R116","area":"สีคิ้ว/ Sikhio","postcode":[{"postcode":"30140","frieight":""},{"postcode":"30340","frieight":""}]},{"id":"R135","area":"สีดา/ Sida","postcode":[{"postcode":"30430","frieight":""}]},{"id":"R127","area":"สูงเนิน/ Sung Noen","postcode":[{"postcode":"30170","frieight":""},{"postcode":"30380","frieight":""}]},{"id":"R117","area":"เสิงสาง/ Soeng Sang","postcode":[{"postcode":"30330","frieight":""}]},{"id":"R133","area":"หนองบุญมาก/ Nhong Boon Mak","postcode":[{"postcode":"30410","frieight":""}]},{"id":"R148","area":"หนองบุญมาก/ Nong Bun Mak","postcode":[]},{"id":"R129","area":"ห้วยแถลง/ Huai Thalaeng","postcode":[{"postcode":"30240","frieight":""}]}]},{"id":"R1908792","city":"นครศรีธรรมราช/ Nakhon Si Thammarat","area":[{"id":"R718","area":"ขนอม/ Khanom","postcode":[{"postcode":"80210","frieight":""}]},{"id":"R711","area":"จุฬาภรณ์/ Chulabhorn","postcode":[{"postcode":"80130","frieight":""},{"postcode":"80180","frieight":""}]},{"id":"R714","area":"ฉวาง/ Chawang","postcode":[{"postcode":"80150","frieight":""},{"postcode":"80250","frieight":""},{"postcode":"80260","frieight":""}]},{"id":"R713","area":"เฉลิมพระเกียรติ/ Chaloem Phra Kiat","postcode":[{"postcode":"80190","frieight":""},{"postcode":"80290","frieight":""},{"postcode":"80350","frieight":""}]},{"id":"R724","area":"ชะอวด/ Cha-uat","postcode":[{"postcode":"80180","frieight":""}]},{"id":"R712","area":"ช้างกลาง/ Chang Klang","postcode":[{"postcode":"80220","frieight":""},{"postcode":"80250","frieight":""}]},{"id":"R719","area":"เชียรใหญ่/ Chian Yai","postcode":[{"postcode":"80190","frieight":""}]},{"id":"R723","area":"ถ้ำพรรณรา/ Tham Phannara","postcode":[{"postcode":"80260","frieight":""}]},{"id":"R708","area":"ท่าศาลา/ Tha Sala","postcode":[{"postcode":"80160","frieight":""}]},{"id":"R716","area":"ทุ่งสง/ Thung Song","postcode":[{"postcode":"80110","frieight":""},{"postcode":"80310","frieight":""}]},{"id":"R715","area":"ทุ่งใหญ่/ Thung Yai","postcode":[{"postcode":"80240","frieight":""}]},{"id":"R722","area":"นบพิตำ/ Nopphitam","postcode":[{"postcode":"80160","frieight":""}]},{"id":"R710","area":"นาบอน/ Na Bon","postcode":[{"postcode":"80220","frieight":""},{"postcode":"80250","frieight":""}]},{"id":"R720","area":"บางขัน/ Bang Khan","postcode":[{"postcode":"80360","frieight":""}]},{"id":"R725","area":"ปากพนัง/ Pak Phanang","postcode":[{"postcode":"80140","frieight":""},{"postcode":"80330","frieight":""},{"postcode":"80370","frieight":""}]},{"id":"R717","area":"พรหมคีรี/ Phrom  Khiri","postcode":[{"postcode":"80320","frieight":""}]},{"id":"R709","area":"พระพรหม/ Phra Phrom","postcode":[{"postcode":"80000","frieight":""}]},{"id":"R726","area":"พิปูน/ Phipun","postcode":[{"postcode":"80270","frieight":""}]},{"id":"R707","area":"เมืองนครศรีธรรมราช/ Mueang Nakhon Si Thammarat","postcode":[{"postcode":"80000","frieight":""},{"postcode":"80280","frieight":""},{"postcode":"80290","frieight":""},{"postcode":"80330","frieight":""}]},{"id":"R705","area":"ร่อนพิบูลย์/ Ron Phibun","postcode":[{"postcode":"80130","frieight":""},{"postcode":"80350","frieight":""}]},{"id":"R706","area":"ลานสกา/ Lan Saka","postcode":[{"postcode":"80230","frieight":""}]},{"id":"R721","area":"สิชล/ Sichon","postcode":[{"postcode":"80120","frieight":""},{"postcode":"80340","frieight":""}]},{"id":"R727","area":"หัวไทร/ Hua Sai","postcode":[{"postcode":"80170","frieight":""}]}]},{"id":"R1908791","city":"นครสวรรค์/ Nakhon Sawan","area":[{"id":"R699","area":"เก้าเลี้ยว/ Kao Liao","postcode":[{"postcode":"60230","frieight":""}]},{"id":"R700","area":"โกรกพระ/ Krok Phra","postcode":[{"postcode":"60170","frieight":""}]},{"id":"R692","area":"ชุมตาบง/ Chum Ta Bong","postcode":[{"postcode":"60150","frieight":""}]},{"id":"R701","area":"ชุมแสง/ Chum Saeng","postcode":[{"postcode":"60120","frieight":""},{"postcode":"60250","frieight":""}]},{"id":"R702","area":"ตากฟ้า/ Tak Fa","postcode":[{"postcode":"60190","frieight":""}]},{"id":"R694","area":"ตาคลี/ Takhli","postcode":[{"postcode":"60140","frieight":""},{"postcode":"60210","frieight":""},{"postcode":"60260","frieight":""}]},{"id":"R703","area":"ท่าตะโก/ Tha Tako","postcode":[{"postcode":"60160","frieight":""}]},{"id":"R695","area":"บรรพตพิสัย/ Banphot Phisai","postcode":[{"postcode":"60180","frieight":""}]},{"id":"R693","area":"พยุหะคีรี/ Phayuha Khiri","postcode":[]},{"id":"R690","area":"พยุหะคีรี/ Phayuha Khiri","postcode":[{"postcode":"60130","frieight":""}]},{"id":"R696","area":"ไพศาลี/ Phaisali","postcode":[{"postcode":"60220","frieight":""}]},{"id":"R689","area":"เมืองนครสวรรค์/ Mueang Nakhon Sawan","postcode":[{"postcode":"60000","frieight":""},{"postcode":"60240","frieight":""}]},{"id":"R704","area":"แม่เปิน/ Mae Poen","postcode":[{"postcode":"60150","frieight":""}]},{"id":"R697","area":"แม่วงก์/ Mae Wong","postcode":[{"postcode":"60150","frieight":""}]},{"id":"R698","area":"ลาดยาว/ Lat Yao","postcode":[{"postcode":"60150","frieight":""}]},{"id":"R691","area":"หนองบัว/ Nong Bua","postcode":[{"postcode":"60110","frieight":""}]}]},{"id":"R1908796","city":"นนทบุรี/ Nonthaburi","area":[{"id":"R2689554","area":"ไทรน้อย/ Sai Noi","postcode":[{"postcode":"11150","frieight":""}]},{"id":"R2688299","area":"บางกรวย/ Bang Kruai","postcode":[{"postcode":"11130","frieight":""}]},{"id":"R2689552","area":"บางบัวทอง/ Bang Bua Thong","postcode":[{"postcode":"11110","frieight":""}]},{"id":"R2689553","area":"บางใหญ่/ Bang Yai","postcode":[{"postcode":"11140","frieight":""}]},{"id":"R2688301","area":"ปากเกร็ด/ Pak Kret","postcode":[{"postcode":"11120","frieight":""}]},{"id":"R2688300","area":"เมืองนนทบุรี/ Mueang Nonthaburi","postcode":[{"postcode":"11000","frieight":""}]}]},{"id":"R1908794","city":"นราธิวาส/ Narathiwat","area":[{"id":"R352","area":"จะแนะ/ Chanae","postcode":[{"postcode":"96220","frieight":""}]},{"id":"R355","area":"เจาะไอร้อง/ Cho-airong","postcode":[{"postcode":"96130","frieight":""}]},{"id":"R356","area":"ตากใบ/ Tak Bai","postcode":[{"postcode":"96110","frieight":""}]},{"id":"R357","area":"บาเจาะ/ Bacho","postcode":[{"postcode":"96170","frieight":""}]},{"id":"R351","area":"เมืองนราธิวาส/ Mueang Narathiwat","postcode":[{"postcode":"96000","frieight":""}]},{"id":"R358","area":"ยี่งอ/ Yi-ngo","postcode":[{"postcode":"96180","frieight":""}]},{"id":"R359","area":"ระแงะ/ Ra-Ngae","postcode":[{"postcode":"96130","frieight":""},{"postcode":"96220","frieight":""}]},{"id":"R360","area":"รือเสาะ/ Rueso","postcode":[{"postcode":"96150","frieight":""}]},{"id":"R361","area":"แว้ง/ Waeng","postcode":[{"postcode":"96160","frieight":""}]},{"id":"R353","area":"ศรีสาคร/ Si Sakhon","postcode":[{"postcode":"96210","frieight":""}]},{"id":"R362","area":"สุคิริน/ Sukhirin","postcode":[{"postcode":"96190","frieight":""}]},{"id":"R354","area":"สุไหงโก-ลก/ Su-ngai Kolok","postcode":[{"postcode":"96120","frieight":""}]},{"id":"R363","area":"สุไหงปาดี/ Su-ngai Padi","postcode":[{"postcode":"96140","frieight":""}]}]},{"id":"R1908793","city":"น่าน/ Nan","area":[{"id":"R616","area":"เฉลิมพระเกียรติ/ Chaloem Phra Kiat","postcode":[{"postcode":"55130","frieight":""},{"postcode":"55220","frieight":""}]},{"id":"R617","area":"เชียงกลาง/ Chiang Klang","postcode":[{"postcode":"55160","frieight":""}]},{"id":"R618","area":"ท่าวังผา/ Tha Wang Pha","postcode":[{"postcode":"55140","frieight":""}]},{"id":"R606","area":"ทุ่งช้าง/ Thung Chang","postcode":[{"postcode":"55130","frieight":""}]},{"id":"R607","area":"นาน้อย/ Na Noi","postcode":[{"postcode":"55150","frieight":""}]},{"id":"R610","area":"นาหมื่น/ Na Muen","postcode":[{"postcode":"55180","frieight":""}]},{"id":"R615","area":"บ่อเกลือ/ Bo Kluea","postcode":[{"postcode":"55220","frieight":""}]},{"id":"R611","area":"บ้านหลวง/ Ban Luang","postcode":[{"postcode":"55190","frieight":""}]},{"id":"R608","area":"ปัว/ Pua","postcode":[{"postcode":"55120","frieight":""}]},{"id":"R609","area":"ภูเพียง/ Phu Phiang","postcode":[{"postcode":"55000","frieight":""}]},{"id":"R612","area":"เมืองน่าน/ Mueang Nan","postcode":[{"postcode":"55000","frieight":""}]},{"id":"R619","area":"แม่จริม/ Mae Charim","postcode":[{"postcode":"55170","frieight":""}]},{"id":"R613","area":"เวียงสา/ Wiang Sa","postcode":[{"postcode":"55110","frieight":""}]},{"id":"R620","area":"สองแคว/ Song Khwae","postcode":[{"postcode":"55160","frieight":""}]},{"id":"R614","area":"สันติสุข/ Santi Suk","postcode":[{"postcode":"55210","frieight":""}]}]},{"id":"R2934602","city":"บึงกาฬ/ Bueng Kan","area":[{"id":"R243","area":"เซกา/ Seka","postcode":[{"postcode":"38150","frieight":""}]},{"id":"R245","area":"โซ่พิสัย/ So Phisai","postcode":[{"postcode":"38170","frieight":""}]},{"id":"R238","area":"บึงโขงหลง/ Bueng Khong Long","postcode":[{"postcode":"38220","frieight":""}]},{"id":"R239","area":"บุ่งคล้า/ Bung Khla","postcode":[{"postcode":"38000","frieight":""}]},{"id":"R240","area":"ปากคาด/ Pak Kad","postcode":[{"postcode":"38190","frieight":""}]},{"id":"R241","area":"พรเจริญ/ Phon Charoen","postcode":[{"postcode":"38180","frieight":""}]},{"id":"R244","area":"เมืองบึงกาฬ/ Bueng Kan","postcode":[{"postcode":"38000","frieight":""}]},{"id":"R242","area":"ศรีวิไล/ Sri Wilai","postcode":[{"postcode":"38210","frieight":""}]}]},{"id":"R1908766","city":"บุรีรัมย์/ Buriram","area":[{"id":"R519","area":"กระสัง/ Krasang","postcode":[{"postcode":"31160","frieight":""}]},{"id":"R510","area":"คูเมือง/ Khu Mueang","postcode":[{"postcode":"31190","frieight":""}]},{"id":"R509","area":"แคนดง/ Khaen Dong","postcode":[{"postcode":"31150","frieight":""}]},{"id":"R524","area":"เฉลิมพระเกียรติ/ Chaloem Phra Kiat","postcode":[{"postcode":"31110","frieight":""},{"postcode":"31170","frieight":""}]},{"id":"R503","area":"ชำนิ/ Chamni","postcode":[{"postcode":"31110","frieight":""}]},{"id":"R504","area":"นางรอง/ Nang Rong","postcode":[{"postcode":"31110","frieight":""}]},{"id":"R516","area":"นาโพธิ์/ Na Pho","postcode":[{"postcode":"31230","frieight":""}]},{"id":"R520","area":"โนนดินแดง/ Non Din Daeng","postcode":[{"postcode":"31260","frieight":""}]},{"id":"R511","area":"โนนสุวรรณ/ Non Suwan","postcode":[{"postcode":"31110","frieight":""}]},{"id":"R505","area":"บ้านกรวด/ Ban Kruat","postcode":[{"postcode":"31180","frieight":""}]},{"id":"R523","area":"บ้านด่าน/ Ban Dan","postcode":[{"postcode":"31000","frieight":""}]},{"id":"R507","area":"บ้านใหม่ไชยพจน์/ Ban Mai Chaiyaphot","postcode":[{"postcode":"31120","frieight":""}]},{"id":"R521","area":"ประโคนชัย/ Prakhon Chai","postcode":[{"postcode":"31140","frieight":""}]},{"id":"R508","area":"ปะคำ/ Pakham","postcode":[{"postcode":"31220","frieight":""}]},{"id":"R506","area":"พลับพลาชัย/ Phlapphla Chai","postcode":[{"postcode":"31250","frieight":""}]},{"id":"R518","area":"พุทไธสง/ Phutthaisong","postcode":[{"postcode":"31120","frieight":""}]},{"id":"R525","area":"เมืองบุรีรัมย์/ Mueang Buri Ram","postcode":[{"postcode":"31000","frieight":""}]},{"id":"R512","area":"ละหานทราย/ Lahan Sai","postcode":[{"postcode":"31170","frieight":""}]},{"id":"R522","area":"ลำปลายมาศ/ Lam Plai Mat","postcode":[{"postcode":"31130","frieight":""}]},{"id":"R513","area":"สตึก/ Satuek","postcode":[{"postcode":"31150","frieight":""}]},{"id":"R514","area":"หนองกี่/ Nong Ki","postcode":[{"postcode":"31210","frieight":""}]},{"id":"R517","area":"หนองหงส์/ Nong Hong","postcode":[{"postcode":"31240","frieight":""}]},{"id":"R515","area":"ห้วยราช/ Huai Rat","postcode":[{"postcode":"31000","frieight":""}]}]},{"id":"R1908797","city":"ปทุมธานี/ Pathum Thani","area":[{"id":"R2913006","area":"คลองหลวง/ Khlong Luang","postcode":[{"postcode":"12110","frieight":""},{"postcode":"12120","frieight":""},{"postcode":"13180","frieight":""}]},{"id":"R2913012","area":"ธัญบุรี/ Thanyaburi","postcode":[{"postcode":"12110","frieight":""},{"postcode":"12130","frieight":""}]},{"id":"R2913009","area":"เมืองปทุมธานี/ Mueang Pathum Thani","postcode":[{"postcode":"12000","frieight":""},{"postcode":"12001","frieight":""}]},{"id":"R2913008","area":"ลาดหลุมแก้ว/ Lat Lum Kaeo","postcode":[{"postcode":"12140","frieight":""}]},{"id":"R2913007","area":"ลำลูกกา/ Lam Luk Ka","postcode":[{"postcode":"12130","frieight":""},{"postcode":"12150","frieight":""}]},{"id":"R2913011","area":"สามโคก/ Sam Khok","postcode":[{"postcode":"12160","frieight":""}]},{"id":"R2913010","area":"หนองเสือ/ Nong Suea","postcode":[{"postcode":"12170","frieight":""}]}]},{"id":"R1908809","city":"ประจวบคีรีขันธ์/ Prachuap Khiri Khan","area":[{"id":"R566","area":"กุยบุรี/ Kui Buri","postcode":[{"postcode":"77150","frieight":""}]},{"id":"R567","area":"ทับสะแก/ Thap Sakae","postcode":[{"postcode":"77130","frieight":""}]},{"id":"R568","area":"บางสะพาน/ Bang Saphan","postcode":[{"postcode":"77140","frieight":""},{"postcode":"77190","frieight":""},{"postcode":"77230","frieight":""}]},{"id":"R561","area":"บางสะพานน้อย/ Bang Saphan Noi","postcode":[{"postcode":"77170","frieight":""}]},{"id":"R562","area":"ปราณบุรี/ Pran Buri","postcode":[{"postcode":"77120","frieight":""},{"postcode":"77160","frieight":""},{"postcode":"77220","frieight":""}]},{"id":"R565","area":"เมืองประจวบคีรีขันธ์/ Mueang Prachuap Khiri Khan","postcode":[{"postcode":"77000","frieight":""},{"postcode":"77210","frieight":""}]},{"id":"R564","area":"สามร้อยยอด/ Sam Roi Yot","postcode":[{"postcode":"77120","frieight":""},{"postcode":"77180","frieight":""}]},{"id":"R563","area":"หัวหิน/ Hua Hin","postcode":[{"postcode":"77110","frieight":""}]}]},{"id":"R1908808","city":"ปราจีนบุรี/ Prachin Buri","area":[{"id":"R865","area":"นาดี/ Na Dee","postcode":[{"postcode":"25220","frieight":""}]},{"id":"R866","area":"บ้านสร้าง/ Ban Sang","postcode":[{"postcode":"25150","frieight":""}]},{"id":"R867","area":"ประจันตคาม/ Prachantakham","postcode":[{"postcode":"25130","frieight":""}]},{"id":"R870","area":"เมืองกบินทร์บุรี/ Kabin Buri","postcode":[{"postcode":"25110","frieight":""},{"postcode":"25240","frieight":""}]},{"id":"R869","area":"เมืองปราจีนบุรี/ Mueang Prachin Buri","postcode":[{"postcode":"25000","frieight":""},{"postcode":"25230","frieight":""}]},{"id":"R868","area":"ศรีมหาโพธิ/ Si Maha Phot","postcode":[{"postcode":"25140","frieight":""}]},{"id":"R871","area":"ศรีมโหสถ/ Si Mahosot","postcode":[{"postcode":"25190","frieight":""}]}]},{"id":"R1908798","city":"ปัตตานี/ Pattani","area":[{"id":"R4","area":"กะพ้อ/ Kapho","postcode":[{"postcode":"94230","frieight":""}]},{"id":"R5","area":"โคกโพธิ์/ Khok Pho","postcode":[{"postcode":"94120","frieight":""},{"postcode":"94180","frieight":""}]},{"id":"R6","area":"ทุ่งยางแดง/ Thung Yang Daeng District","postcode":[{"postcode":"94140","frieight":""}]},{"id":"R7","area":"ปะนาเระ/ Panare","postcode":[{"postcode":"94130","frieight":""},{"postcode":"94190","frieight":""}]},{"id":"R1","area":"มายอ/ Mayo","postcode":[{"postcode":"94140","frieight":""},{"postcode":"94190","frieight":""}]},{"id":"R9","area":"เมืองปัตตานี/ Mueang Pattani","postcode":[{"postcode":"94000","frieight":""}]},{"id":"R3","area":"แม่ลาน/ Mae Lan","postcode":[{"postcode":"94180","frieight":""}]},{"id":"R10","area":"ไม้แก่น/ Mai Kaen","postcode":[{"postcode":"94220","frieight":""}]},{"id":"R11","area":"ยะรัง/ Yarang","postcode":[{"postcode":"94160","frieight":""}]},{"id":"R12","area":"ยะหริ่ง/ Yaring","postcode":[{"postcode":"94150","frieight":""},{"postcode":"94190","frieight":""}]},{"id":"R8","area":"สายบุรี/ Sai Buri","postcode":[{"postcode":"94110","frieight":""},{"postcode":"94190","frieight":""}]},{"id":"R2","area":"หนองจิก/ Nong Chik","postcode":[{"postcode":"94170","frieight":""}]}]},{"id":"R1908806","city":"พระนครศรีอยุธยา/ Phra Nakhon Si Ayutthaya","area":[{"id":"R189","area":"ท่าเรือ/ Tha Ruea","postcode":[{"postcode":"13130","frieight":""},{"postcode":"18270","frieight":""}]},{"id":"R197","area":"นครหลวง/ Nakhon Luang","postcode":[{"postcode":"13260","frieight":""}]},{"id":"R195","area":"บางซ้าย/ Bang Sai","postcode":[{"postcode":"13270","frieight":""}]},{"id":"R202","area":"บางไทร/ Bang Sai","postcode":[{"postcode":"13190","frieight":""},{"postcode":"13290","frieight":""}]},{"id":"R193","area":"บางบาล/ Bang Ban","postcode":[{"postcode":"13250","frieight":""}]},{"id":"R188","area":"บางปะหัน/ Bang Pahan","postcode":[{"postcode":"13220","frieight":""}]},{"id":"R194","area":"บางปะอิน/ Bang Pa-in","postcode":[{"postcode":"13160","frieight":""},{"postcode":"13170","frieight":""},{"postcode":"13180","frieight":""}]},{"id":"R200","area":"บ้านแพรก/ Ban Phraek","postcode":[{"postcode":"13240","frieight":""}]},{"id":"R191","area":"ผักไห่/ Phak Hai","postcode":[{"postcode":"13120","frieight":""},{"postcode":"13280","frieight":""}]},{"id":"R192","area":"พระนครศรีอยุธยา/ Phra Nakhon Si Ayutthaya","postcode":[{"postcode":"13000","frieight":""},{"postcode":"13002","frieight":""},{"postcode":"13250","frieight":""}]},{"id":"R198","area":"ภาชี/ Phachi","postcode":[{"postcode":"13140","frieight":""},{"postcode":"18250","frieight":""}]},{"id":"R201","area":"มหาราช/ Maha Rat","postcode":[{"postcode":"13150","frieight":""}]},{"id":"R196","area":"ลาดบัวหลวง/ Lat Bua Luang","postcode":[{"postcode":"13230","frieight":""}]},{"id":"R199","area":"วังน้อย/ Wang Noi","postcode":[{"postcode":"13170","frieight":""},{"postcode":"13180","frieight":""}]},{"id":"R187","area":"เสนา/ Sena","postcode":[{"postcode":"13110","frieight":""}]},{"id":"R190","area":"อุทัย/ Uthai","postcode":[{"postcode":"13000","frieight":""},{"postcode":"13210","frieight":""}]}]},{"id":"R1908801","city":"พะเยา/ Phayao","area":[{"id":"R368","area":"จุน/ Chun","postcode":[{"postcode":"56150","frieight":""}]},{"id":"R364","area":"เชียงคำ/ Chiang Kham","postcode":[{"postcode":"56110","frieight":""}]},{"id":"R370","area":"เชียงม่วน/ Chiang Muan","postcode":[{"postcode":"56160","frieight":""}]},{"id":"R365","area":"ดอกคำใต้/ Dok Khamtai","postcode":[{"postcode":"56120","frieight":""}]},{"id":"R366","area":"ปง/ Pong","postcode":[{"postcode":"56140","frieight":""}]},{"id":"R369","area":"ภูกามยาว/ Phu Kamyao","postcode":[{"postcode":"56000","frieight":""}]},{"id":"R367","area":"ภูซาง/ Phu Sang","postcode":[{"postcode":"56110","frieight":""}]},{"id":"R3427220","area":"เมืองพะเยา/ Mueang Phayao","postcode":[{"postcode":"56000","frieight":""}]},{"id":"R371","area":"แม่ใจ/ Mae Chai","postcode":[{"postcode":"56130","frieight":""}]}]},{"id":"R1908799","city":"พังงา/ Phang Nga","area":[{"id":"R849","area":"กะปง/ Kapong","postcode":[{"postcode":"82170","frieight":""}]},{"id":"R850","area":"เกาะยาว/ Ko Yao","postcode":[{"postcode":"82160","frieight":""},{"postcode":"83000","frieight":""}]},{"id":"R851","area":"คุระบุรี/ Khura Buri","postcode":[{"postcode":"82150","frieight":""}]},{"id":"R852","area":"ตะกั่วทุ่ง/ Takua Thung","postcode":[{"postcode":"82130","frieight":""},{"postcode":"82140","frieight":""}]},{"id":"R853","area":"ตะกั่วป่า/ Takua Pa","postcode":[{"postcode":"82110","frieight":""},{"postcode":"82190","frieight":""},{"postcode":"82220","frieight":""}]},{"id":"R854","area":"ทับปุด/ Thap Put","postcode":[{"postcode":"82180","frieight":""}]},{"id":"R855","area":"ท้ายเหมือง/ Thai Mueang","postcode":[{"postcode":"82120","frieight":""},{"postcode":"82210","frieight":""}]},{"id":"R856","area":"เมืองพังงา/ Mueang Phangnga","postcode":[{"postcode":"82000","frieight":""}]}]},{"id":"R1908800","city":"พัทลุง/ Phatthalung","area":[{"id":"R787","area":"กงหรา/ Kong Ra","postcode":[{"postcode":"93000","frieight":""},{"postcode":"93180","frieight":""}]},{"id":"R788","area":"เขาชัยสน/ Khao Chaison","postcode":[{"postcode":"93130","frieight":""}]},{"id":"R780","area":"ควนขนุน/ Khuan Khanun","postcode":[{"postcode":"93110","frieight":""},{"postcode":"93150","frieight":""}]},{"id":"R789","area":"ตะโหมด/ Tamot","postcode":[{"postcode":"93160","frieight":""}]},{"id":"R784","area":"บางแก้ว/ Bang Kaeo","postcode":[{"postcode":"93140","frieight":""},{"postcode":"93160","frieight":""}]},{"id":"R781","area":"ปากพะยูน/ Pak Phayun","postcode":[{"postcode":"93120","frieight":""}]},{"id":"R782","area":"ป่าบอน/ Pa Bon","postcode":[{"postcode":"93170","frieight":""}]},{"id":"R790","area":"ป่าพะยอม/ Pa Phayom","postcode":[{"postcode":"93210","frieight":""}]},{"id":"R786","area":"เมืองพัทลุง/ Mueang Phatthalung","postcode":[{"postcode":"93000","frieight":""}]},{"id":"R791","area":"ศรีนครินทร์/ Srinagarindra","postcode":[{"postcode":"93000","frieight":""}]},{"id":"R783","area":"ศรีบรรพต/ Si Banphot","postcode":[{"postcode":"93190","frieight":""}]}]},{"id":"R1908804","city":"พิจิตร/ Phichit","area":[{"id":"R251","area":"ดงเจริญ/ Dong Charoen","postcode":[{"postcode":"66210","frieight":""}]},{"id":"R247","area":"ตะพานหิน/ Taphan Hin","postcode":[{"postcode":"66110","frieight":""},{"postcode":"66150","frieight":""}]},{"id":"R252","area":"ทับคล้อ/ Tap Khlo","postcode":[{"postcode":"66150","frieight":""},{"postcode":"66230","frieight":""}]},{"id":"R253","area":"บางมูลนาก/ Bang Mun Nak","postcode":[{"postcode":"66120","frieight":""},{"postcode":"66210","frieight":""}]},{"id":"R256","area":"บึงนาราง/ Bueng Na Rang","postcode":[{"postcode":"66130","frieight":""}]},{"id":"R248","area":"โพทะเล/ Pho Thale","postcode":[{"postcode":"66130","frieight":""}]},{"id":"R249","area":"โพธิ์ประทับช้าง/ Pho Prathap Chang","postcode":[{"postcode":"66190","frieight":""}]},{"id":"R246","area":"เมืองพิจิตร/ Mueang Phichit","postcode":[{"postcode":"66000","frieight":""},{"postcode":"66170","frieight":""}]},{"id":"R257","area":"วชิรบารมี/ Wachirabarami","postcode":[{"postcode":"66220","frieight":""}]},{"id":"R254","area":"วังทรายพูน/ Wang Sai Phun","postcode":[{"postcode":"66180","frieight":""}]},{"id":"R255","area":"สากเหล็ก/ Sak Lek","postcode":[{"postcode":"66160","frieight":""}]},{"id":"R250","area":"สามง่าม/ Sam Ngam","postcode":[{"postcode":"66140","frieight":""},{"postcode":"66220","frieight":""}]}]},{"id":"R1908805","city":"พิษณุโลก/ Phitsanulok","area":[{"id":"R733","area":"ชาติตระการ/ Chat Trakan","postcode":[{"postcode":"65170","frieight":""}]},{"id":"R729","area":"นครไทย/ Nakhon Thai","postcode":[{"postcode":"65120","frieight":""}]},{"id":"R734","area":"เนินมะปราง/ Noen Maprang","postcode":[{"postcode":"65190","frieight":""}]},{"id":"R730","area":"บางกระทุ่ม/ Bang Krathum","postcode":[{"postcode":"65110","frieight":""},{"postcode":"65210","frieight":""}]},{"id":"R731","area":"บางระกำ/ Bang Rakam","postcode":[{"postcode":"65140","frieight":""},{"postcode":"65240","frieight":""}]},{"id":"R732","area":"พรหมพิราม/ Phrom Phiram","postcode":[{"postcode":"65150","frieight":""},{"postcode":"65180","frieight":""}]},{"id":"R728","area":"เมืองพิษณุโลก/ Mueang Phitsanulok","postcode":[{"postcode":"65000","frieight":""},{"postcode":"65230","frieight":""}]},{"id":"R735","area":"วังทอง/ Wang Thong","postcode":[{"postcode":"65130","frieight":""},{"postcode":"65220","frieight":""}]},{"id":"R736","area":"วัดโบสถ์/ Wat Bot","postcode":[{"postcode":"65160","frieight":""}]}]},{"id":"R1908803","city":"เพชรบุรี/ Phetchaburi","area":[{"id":"R857","area":"แก่งกระจาน/ Kaeng Krachan","postcode":[{"postcode":"76170","frieight":""}]},{"id":"R858","area":"เขาย้อย/ Khao Yoi","postcode":[{"postcode":"76140","frieight":""}]},{"id":"R859","area":"ชะอำ/ Cha-am","postcode":[{"postcode":"76120","frieight":""}]},{"id":"R860","area":"ท่ายาง/ Tha Yang","postcode":[{"postcode":"76130","frieight":""}]},{"id":"R861","area":"บ้านลาด/ Ban Lat","postcode":[{"postcode":"76150","frieight":""}]},{"id":"R862","area":"บ้านแหลม/ Ban Laem","postcode":[{"postcode":"76100","frieight":""},{"postcode":"76110","frieight":""}]},{"id":"R864","area":"เมืองเพชรบุรี/ Mueang Phetchaburi","postcode":[{"postcode":"76000","frieight":""},{"postcode":"76100","frieight":""}]},{"id":"R863","area":"หนองหญ้าปล้อง/ Nong Ya Plong","postcode":[{"postcode":"76160","frieight":""}]}]},{"id":"R1908802","city":"เพชรบูรณ์/ Phetchabun","area":[{"id":"R320","area":"เขาค้อ/ Khao Kho","postcode":[{"postcode":"67270","frieight":""},{"postcode":"67280","frieight":""}]},{"id":"R321","area":"ชนแดน/ Chon Daen","postcode":[{"postcode":"67150","frieight":""},{"postcode":"67190","frieight":""}]},{"id":"R313","area":"น้ำหนาว/ Nam Nao","postcode":[{"postcode":"67260","frieight":""}]},{"id":"R314","area":"บึงสามพัน/ Bueng Sam Phan","postcode":[{"postcode":"67160","frieight":""},{"postcode":"67230","frieight":""}]},{"id":"R319","area":"เมืองเพชรบูรณ์/ Mueang Phetchabun","postcode":[{"postcode":"67000","frieight":""},{"postcode":"67210","frieight":""},{"postcode":"67250","frieight":""}]},{"id":"R312","area":"วังโป่ง/ Wang Pong","postcode":[{"postcode":"67240","frieight":""}]},{"id":"R322","area":"วิเชียรบุรี/ Wichian Buri","postcode":[{"postcode":"67130","frieight":""},{"postcode":"67180","frieight":""}]},{"id":"R315","area":"ศรีเทพ/ Si Thep","postcode":[{"postcode":"67170","frieight":""}]},{"id":"R316","area":"หนองไผ่/ Nong Phai","postcode":[{"postcode":"67140","frieight":""},{"postcode":"67220","frieight":""}]},{"id":"R317","area":"หล่มเก่า/ Lom Kao","postcode":[{"postcode":"67120","frieight":""}]},{"id":"R318","area":"หล่มสัก/ Lom Sak","postcode":[{"postcode":"67110","frieight":""}]}]},{"id":"R1908807","city":"แพร่/ Phrae","area":[{"id":"R376","area":"เด่นชัย/ Den Chai","postcode":[{"postcode":"54110","frieight":""}]},{"id":"R375","area":"เมืองแพร่/ Mueang Phrae","postcode":[{"postcode":"54000","frieight":""},{"postcode":"54001","frieight":""}]},{"id":"R377","area":"ร้องกวาง/ Rong Kwang","postcode":[{"postcode":"54140","frieight":""}]},{"id":"R378","area":"ลอง/ Long","postcode":[{"postcode":"54150","frieight":""}]},{"id":"R379","area":"วังชิ้น/ Wang Chin","postcode":[{"postcode":"54160","frieight":""}]},{"id":"R372","area":"สอง/ Song","postcode":[{"postcode":"54120","frieight":""}]},{"id":"R374","area":"สูงเม่น/ Sung Men","postcode":[{"postcode":"54000","frieight":""},{"postcode":"54130","frieight":""}]},{"id":"R373","area":"หนองม่วงไข่/ Nong Muang Khai","postcode":[{"postcode":"54170","frieight":""}]}]},{"id":"R2934604","city":"ภูเก็ต/ Phuket","area":[{"id":"R89","area":"กะทู้/ Kathu","postcode":[{"postcode":"83120","frieight":""},{"postcode":"83150","frieight":""}]},{"id":"R90","area":"ถลาง/ Thalang","postcode":[{"postcode":"83110","frieight":""}]},{"id":"R91","area":"เมืองภูเก็ต/ Mueang Phuket","postcode":[{"postcode":"83000","frieight":""},{"postcode":"83001","frieight":""},{"postcode":"83002","frieight":""},{"postcode":"83100","frieight":""},{"postcode":"83130","frieight":""}]}]},{"id":"R1908786","city":"มหาสารคาม/ Maha Sarakham","area":[{"id":"R102","area":"กันทรวิชัย/ Kantharawichai","postcode":[{"postcode":"44150","frieight":""}]},{"id":"R100","area":"กุดรัง/ Kut Rang","postcode":[{"postcode":"44130","frieight":""}]},{"id":"R103","area":"แกดำ/ Kae Dam","postcode":[{"postcode":"44190","frieight":""}]},{"id":"R104","area":"โกสุมพิสัย/ Kosum Phisai","postcode":[{"postcode":"44140","frieight":""}]},{"id":"R101","area":"ชื่นชม/ Chuen Chom","postcode":[{"postcode":"44160","frieight":""}]},{"id":"R99","area":"เชียงยืน/ Chiang Yuen","postcode":[{"postcode":"44160","frieight":""}]},{"id":"R97","area":"นาเชือก/ Na Chueak","postcode":[{"postcode":"44170","frieight":""}]},{"id":"R98","area":"นาดูน/ Na Dun","postcode":[{"postcode":"44180","frieight":""}]},{"id":"R92","area":"บรบือ/ Borabue","postcode":[{"postcode":"44130","frieight":""}]},{"id":"R93","area":"พยัคฆภูมิพิสัย/ Phayakkhaphum Phisai","postcode":[{"postcode":"44110","frieight":""}]},{"id":"R96","area":"เมืองมหาสารคาม/ Mueang Maha Sarakham","postcode":[{"postcode":"44000","frieight":""}]},{"id":"R95","area":"ยางสีสุราช/ Yang Sisurat","postcode":[{"postcode":"44210","frieight":""}]},{"id":"R94","area":"วาปีปทุม/ Wapi Pathum","postcode":[{"postcode":"44120","frieight":""}]}]},{"id":"R2934603","city":"มุกดาหาร/ Mukdahan","area":[{"id":"R773","area":"คำชะอี/ Khamcha-I","postcode":[{"postcode":"49110","frieight":""}]},{"id":"R774","area":"ดงหลวง/ Dong Luang","postcode":[{"postcode":"49140","frieight":""}]},{"id":"R775","area":"ดอนตาล/ Don Tan","postcode":[{"postcode":"49120","frieight":""}]},{"id":"R776","area":"นิคมคำสร้อย/ Nikhom Kham Soi","postcode":[{"postcode":"49130","frieight":""}]},{"id":"R779","area":"เมืองมุกดาหาร/ Mueang Mukdahan","postcode":[{"postcode":"49000","frieight":""}]},{"id":"R777","area":"หนองสูง/ Nong Sung","postcode":[{"postcode":"49160","frieight":""}]},{"id":"R778","area":"หว้านใหญ่/ Wan Yai","postcode":[{"postcode":"49150","frieight":""}]}]},{"id":"R1908785","city":"แม่ฮ่องสอน/ Mae Hong Son","area":[{"id":"R42","area":"Pai/ ปาย ","postcode":[]},{"id":"R38","area":"ขุนยวม/ Khun Yuam","postcode":[{"postcode":"58140","frieight":""}]},{"id":"R39","area":"ปางมะผ้า/ Pang Mapha","postcode":[{"postcode":"58150","frieight":""}]},{"id":"R34","area":"ปาย/ Pai","postcode":[{"postcode":"58130","frieight":""}]},{"id":"R41","area":"เมือง/ Maung","postcode":[]},{"id":"R37","area":"เมืองแม่ฮ่องสอน/ Mueang Mae Hong Son","postcode":[{"postcode":"58000","frieight":""}]},{"id":"R35","area":"แม่ลาน้อย/ Mae La Noi","postcode":[{"postcode":"58120","frieight":""}]},{"id":"R36","area":"แม่สะเรียง/ Mae Sariang","postcode":[{"postcode":"58110","frieight":""}]},{"id":"R40","area":"สบเมย/ Sop Moei","postcode":[{"postcode":"58110","frieight":""}]}]},{"id":"R1908873","city":"ยโสธร/ Yasothon","area":[{"id":"R264","area":"กุดชุม/ Kut Chum","postcode":[{"postcode":"35140","frieight":""}]},{"id":"R269","area":"ค้อวัง/ Kho Wang","postcode":[{"postcode":"35160","frieight":""}]},{"id":"R268","area":"คำเขื่อนแก้ว/ Kham Khuean Kaeo","postcode":[{"postcode":"35110","frieight":""},{"postcode":"35180","frieight":""}]},{"id":"R272","area":"ทรายมูล/ Sai Mun","postcode":[{"postcode":"35170","frieight":""}]},{"id":"R267","area":"ไทยเจริญ/ Thai Charoen","postcode":[{"postcode":"35120","frieight":""}]},{"id":"R266","area":"ป่าติ้ว/ Pa Tio","postcode":[{"postcode":"35150","frieight":""}]},{"id":"R271","area":"มหาชนะชัย/ Maha Chana Chai","postcode":[{"postcode":"35130","frieight":""}]},{"id":"R270","area":"เมืองยโสธร/ Mueang Yasothon","postcode":[{"postcode":"35000","frieight":""}]},{"id":"R265","area":"เลิงนกทา/ Loeng Nok Tha","postcode":[{"postcode":"35120","frieight":""}]}]},{"id":"R1908872","city":"ยะลา/ Yala","area":[{"id":"R645","area":"กรงปินัง/ Krong Pinang","postcode":[{"postcode":"95000","frieight":""}]},{"id":"R644","area":"กาบัง/ Kabang","postcode":[{"postcode":"95120","frieight":""}]},{"id":"R646","area":"ธารโต/ Than To","postcode":[{"postcode":"95130","frieight":""},{"postcode":"95150","frieight":""},{"postcode":"95170","frieight":""}]},{"id":"R647","area":"บันนังสตา/ Bannang Sata","postcode":[{"postcode":"95130","frieight":""}]},{"id":"R648","area":"เบตง/ Betong","postcode":[{"postcode":"95110","frieight":""}]},{"id":"R643","area":"เมืองยะลา/ Mueang Yala","postcode":[{"postcode":"95000","frieight":""},{"postcode":"95160","frieight":""}]},{"id":"R649","area":"ยะหา/ Yaha","postcode":[{"postcode":"95120","frieight":""}]},{"id":"R650","area":"รามัน/ Raman","postcode":[{"postcode":"95140","frieight":""}]}]},{"id":"R1908813","city":"ร้อยเอ็ด/ Roi Et","area":[{"id":"R413","area":"เกษตรวิสัย/ Kaset Wisai","postcode":[{"postcode":"45150","frieight":""}]},{"id":"R400","area":"จตุรพักตรพิมาน/ Chaturaphak Phiman","postcode":[{"postcode":"45180","frieight":""}]},{"id":"R420","area":"จังหาร/ Changhan","postcode":[{"postcode":"45000","frieight":""}]},{"id":"R412","area":"เชียงขวัญ/ Chiang Khwan","postcode":[{"postcode":"45000","frieight":""},{"postcode":"45170","frieight":""}]},{"id":"R418","area":"ทุ่งเขาหลวง/ Thung Khao Luang","postcode":[{"postcode":"45170","frieight":""}]},{"id":"R401","area":"ธวัชบุรี/ Thawat Buri","postcode":[{"postcode":"45170","frieight":""}]},{"id":"R414","area":"ปทุมรัตต์/ Pathum Rat","postcode":[{"postcode":"45190","frieight":""}]},{"id":"R415","area":"พนมไพร/ Phanom Phrai","postcode":[{"postcode":"45140","frieight":""}]},{"id":"R421","area":"โพธิ์ชัย/ Pho Chai","postcode":[{"postcode":"45230","frieight":""}]},{"id":"R408","area":"โพนทราย/ Phon Sai","postcode":[{"postcode":"45240","frieight":""}]},{"id":"R405","area":"โพนทอง/ Phon Thong","postcode":[{"postcode":"45110","frieight":""}]},{"id":"R402","area":"เมยวดี/ Moei Wadi","postcode":[{"postcode":"45250","frieight":""}]},{"id":"R419","area":"เมืองร้อยเอ็ด/ Mueang Roi Et","postcode":[{"postcode":"45000","frieight":""}]},{"id":"R406","area":"เมืองสรวง/ Mueang Suang","postcode":[{"postcode":"45220","frieight":""}]},{"id":"R409","area":"ศรีสมเด็จ/ Si Somdet","postcode":[{"postcode":"45000","frieight":""},{"postcode":"45280","frieight":""}]},{"id":"R417","area":"สุวรรณภูมิ/ Suwannaphum","postcode":[{"postcode":"45130","frieight":""}]},{"id":"R407","area":"เสลภูมิ/ Selaphum","postcode":[{"postcode":"45120","frieight":""}]},{"id":"R410","area":"หนองพอก/ Nong Phok","postcode":[{"postcode":"45210","frieight":""}]},{"id":"R416","area":"หนองฮี/ Nong Hi","postcode":[{"postcode":"45140","frieight":""}]},{"id":"R411","area":"อาจสามารถ/ At Samat","postcode":[{"postcode":"45160","frieight":""}]}]},{"id":"R1908810","city":"ระนอง/ Ranong","area":[{"id":"R262","area":"กระบุรี/ Kra Buri","postcode":[{"postcode":"85110","frieight":""}]},{"id":"R263","area":"กะเปอร์/ Kapoe","postcode":[{"postcode":"85120","frieight":""}]},{"id":"R260","area":"เมืองระนอง/ Mueang Ranong","postcode":[{"postcode":"85000","frieight":""},{"postcode":"85130","frieight":""}]},{"id":"R261","area":"เมืองระนอง/ Mueang Ranong","postcode":[]},{"id":"R258","area":"ละอุ่น/ La-un","postcode":[{"postcode":"85130","frieight":""}]},{"id":"R259","area":"สุขสำราญ/ Suk Samran","postcode":[{"postcode":"85120","frieight":""}]}]},{"id":"R1908812","city":"ระยอง/ Rayong","area":[{"id":"R329","area":"แกลง/ Klaeng","postcode":[{"postcode":"21110","frieight":""},{"postcode":"21170","frieight":""},{"postcode":"21190","frieight":""},{"postcode":"22160","frieight":""}]},{"id":"R328","area":"เขาชะเมา/ Khao Chamao","postcode":[{"postcode":"21110","frieight":""}]},{"id":"R330","area":"นิคมพัฒนา/ Nikhom Phatthana","postcode":[{"postcode":"21180","frieight":""}]},{"id":"R327","area":"บ้านค่าย/ Ban Khai","postcode":[{"postcode":"21120","frieight":""}]},{"id":"R326","area":"บ้านฉาง/ Ban Chang","postcode":[{"postcode":"21130","frieight":""}]},{"id":"R323","area":"ปลวกแดง/ Pluak Daeng","postcode":[{"postcode":"21140","frieight":""}]},{"id":"R325","area":"เมืองระยอง/ Mueang Rayong","postcode":[{"postcode":"21000","frieight":""},{"postcode":"21100","frieight":""},{"postcode":"21150","frieight":""},{"postcode":"21160","frieight":""}]},{"id":"R324","area":"วังจันทร์/ Wang Chan","postcode":[{"postcode":"21210","frieight":""}]}]},{"id":"R1908811","city":"ราชบุรี/ Ratchaburi","area":[{"id":"R742","area":"จอมบึง/ Chom Bueng","postcode":[{"postcode":"70150","frieight":""}]},{"id":"R743","area":"ดำเนินสะดวก/ Damnoen Saduak","postcode":[{"postcode":"70130","frieight":""},{"postcode":"70210","frieight":""}]},{"id":"R737","area":"บางแพ/ Bang Phae","postcode":[{"postcode":"70160","frieight":""}]},{"id":"R741","area":"บ้านคา/ Ban Kha","postcode":[{"postcode":"70180","frieight":""}]},{"id":"R738","area":"บ้านโป่ง/ Ban Pong","postcode":[{"postcode":"70110","frieight":""},{"postcode":"70190","frieight":""}]},{"id":"R739","area":"ปากท่อ/ Pak Tho","postcode":[{"postcode":"70140","frieight":""}]},{"id":"R746","area":"โพธาราม/ Photharam","postcode":[{"postcode":"70120","frieight":""}]},{"id":"R745","area":"เมืองราชบุรี/ Mueang Ratchaburi","postcode":[{"postcode":"70000","frieight":""}]},{"id":"R740","area":"วัดเพลง/ Wat Phleng","postcode":[{"postcode":"70170","frieight":""}]},{"id":"R744","area":"สวนผึ้ง/ Suan Phueng","postcode":[{"postcode":"70180","frieight":""}]}]},{"id":"R1908784","city":"ลพบุรี/ Lopburi","area":[{"id":"R551","area":"โคกเจริญ/ Khok Charoen","postcode":[{"postcode":"15250","frieight":""}]},{"id":"R557","area":"โคกสำโรง/ Khok Samrong","postcode":[{"postcode":"15120","frieight":""}]},{"id":"R552","area":"ชัยบาดาล/ Chai Badan","postcode":[{"postcode":"15130","frieight":""},{"postcode":"15190","frieight":""},{"postcode":"15230","frieight":""}]},{"id":"R558","area":"ท่าวุ้ง/ Tha Wung","postcode":[{"postcode":"15150","frieight":""},{"postcode":"15180","frieight":""}]},{"id":"R553","area":"ท่าหลวง/ Tha Luang","postcode":[{"postcode":"15230","frieight":""}]},{"id":"R549","area":"บ้านหมี่/ Ban Mi","postcode":[{"postcode":"15110","frieight":""},{"postcode":"15180","frieight":""}]},{"id":"R559","area":"พัฒนานิคม/ Phatthana Nikhom","postcode":[{"postcode":"15140","frieight":""},{"postcode":"15220","frieight":""},{"postcode":"18220","frieight":""}]},{"id":"R550","area":"เมืองลพบุรี/ Mueang Lop Buri","postcode":[{"postcode":"13240","frieight":""},{"postcode":"15000","frieight":""},{"postcode":"15160","frieight":""},{"postcode":"15210","frieight":""}]},{"id":"R560","area":"ลำสนธิ/ Lam Sonthi","postcode":[{"postcode":"15190","frieight":""}]},{"id":"R556","area":"สระโบถส์/ Sa Bot","postcode":[]},{"id":"R554","area":"สระโบสถ์/ Sa Bot","postcode":[{"postcode":"15240","frieight":""}]},{"id":"R555","area":"หนองม่วง/ Nong Muang","postcode":[{"postcode":"15170","frieight":""}]}]},{"id":"R1908781","city":"ลำปาง/ Lampang","area":[{"id":"R28","area":"เกาะคา/ Ko Kha","postcode":[{"postcode":"52130","frieight":""}]},{"id":"R21","area":"งาว/ Ngao","postcode":[{"postcode":"52110","frieight":""}]},{"id":"R30","area":"แจ้ห่ม/ Chae Hom","postcode":[{"postcode":"52120","frieight":""}]},{"id":"R22","area":"เถิน/ Thoen","postcode":[{"postcode":"52160","frieight":""},{"postcode":"52230","frieight":""}]},{"id":"R25","area":"เมืองปาน/ Mueang Pan","postcode":[{"postcode":"52240","frieight":""}]},{"id":"R33","area":"เมืองลำปาง/ Mueang Lampang","postcode":[{"postcode":"52000","frieight":""},{"postcode":"52100","frieight":""},{"postcode":"52102","frieight":""},{"postcode":"52220","frieight":""}]},{"id":"R23","area":"แม่ทะ/ Mae Tha","postcode":[{"postcode":"52150","frieight":""},{"postcode":"52220","frieight":""}]},{"id":"R24","area":"แม่พริก/ Mae Phrik","postcode":[{"postcode":"52180","frieight":""},{"postcode":"52230","frieight":""}]},{"id":"R31","area":"แม่เมาะ/ Mae Mo","postcode":[{"postcode":"52000","frieight":""},{"postcode":"52220","frieight":""}]},{"id":"R26","area":"วังเหนือ/ Wang Nuea","postcode":[{"postcode":"52140","frieight":""}]},{"id":"R27","area":"สบปราบ/ Sop Prap","postcode":[{"postcode":"52170","frieight":""}]},{"id":"R32","area":"เสริมงาม/ Soem Ngam","postcode":[{"postcode":"52210","frieight":""}]},{"id":"R29","area":"ห้างฉัตร/ Hang Chat","postcode":[{"postcode":"52190","frieight":""}]}]},{"id":"R1908782","city":"ลำพูน/ Lamphun","area":[{"id":"R526","area":"ทุ่งหัวช้าง/ Thung Hua Chang","postcode":[{"postcode":"51160","frieight":""}]},{"id":"R534","area":"บ้านธิ/ Ban Thi","postcode":[{"postcode":"51180","frieight":""}]},{"id":"R527","area":"บ้านโฮ่ง/ Ban Hong","postcode":[{"postcode":"51130","frieight":""}]},{"id":"R532","area":"ป่าซาง/ Pa Sang","postcode":[{"postcode":"51120","frieight":""}]},{"id":"R531","area":"เมืองลำพูน/ Mueang Lamphun","postcode":[{"postcode":"51000","frieight":""},{"postcode":"51150","frieight":""}]},{"id":"R533","area":"แม่ทา/ Mae Tha","postcode":[{"postcode":"51140","frieight":""},{"postcode":"51170","frieight":""}]},{"id":"R528","area":"ลี้/ Li","postcode":[{"postcode":"51110","frieight":""}]},{"id":"R529","area":"เวียงหนองล่อง/ Wiang Nong Long","postcode":[{"postcode":"51120","frieight":""}]}]},{"id":"R1908783","city":"เลย/ Loei","area":[{"id":"R542","area":"เชียงคาน/ Chiang Khan","postcode":[{"postcode":"42110","frieight":""}]},{"id":"R539","area":"ด่านซ้าย/ Dan Sai","postcode":[{"postcode":"42120","frieight":""}]},{"id":"R540","area":"ท่าลี่/ Tha Li","postcode":[{"postcode":"42140","frieight":""}]},{"id":"R545","area":"นาด้วง/ Na Duang","postcode":[{"postcode":"42210","frieight":""}]},{"id":"R543","area":"นาแห้ว/ Na Haeo","postcode":[{"postcode":"42170","frieight":""}]},{"id":"R535","area":"ปากชม/ Pak Chom","postcode":[{"postcode":"42150","frieight":""}]},{"id":"R541","area":"ผาขาว/ Pha Khao","postcode":[{"postcode":"42240","frieight":""}]},{"id":"R536","area":"ภูกระดึง/ Phu Kradueng","postcode":[{"postcode":"42180","frieight":""}]},{"id":"R537","area":"ภูเรือ/ Phu Ruea","postcode":[{"postcode":"42160","frieight":""}]},{"id":"R546","area":"ภูหลวง/ Phu Luang","postcode":[{"postcode":"42230","frieight":""}]},{"id":"R544","area":"เมืองเลย/ Mueang Loei","postcode":[{"postcode":"42000","frieight":""},{"postcode":"42100","frieight":""}]},{"id":"R547","area":"วังสะพุง/ Wang Saphung","postcode":[{"postcode":"42130","frieight":""}]},{"id":"R538","area":"หนองหิน/ Nong Hin","postcode":[{"postcode":"42190","frieight":""}]},{"id":"R548","area":"เอราวัณ/ Erawan","postcode":[{"postcode":"42220","frieight":""}]}]},{"id":"R1908821","city":"ศรีสะเกษ/ Sisaket","area":[{"id":"R912","area":"กันทรลักษ์/ Kantharalak","postcode":[{"postcode":"33110","frieight":""}]},{"id":"R895","area":"กันทรารมย์/ Kanthararom","postcode":[{"postcode":"33130","frieight":""}]},{"id":"R901","area":"ขุขันธ์/ Khukhan","postcode":[{"postcode":"33140","frieight":""}]},{"id":"R905","area":"ขุนหาญ/ Khun Han","postcode":[{"postcode":"33150","frieight":""}]},{"id":"R897","area":"น้ำเกลี้ยง/ Nam Kliang","postcode":[{"postcode":"33130","frieight":""}]},{"id":"R902","area":"โนนคูณ/ Non Khun","postcode":[{"postcode":"33250","frieight":""}]},{"id":"R894","area":"บึงบูรพ์/ Bueng Bun","postcode":[{"postcode":"33220","frieight":""}]},{"id":"R910","area":"เบญจลักษ์/ Benchalak","postcode":[{"postcode":"33110","frieight":""}]},{"id":"R892","area":"ปรางค์กู่/ Prang Ku","postcode":[{"postcode":"33170","frieight":""}]},{"id":"R913","area":"พยุห์/ Phayu","postcode":[{"postcode":"33230","frieight":""}]},{"id":"R904","area":"โพธิ์ศรีสุวรรณ/ Pho Si Suwan","postcode":[{"postcode":"33120","frieight":""}]},{"id":"R903","area":"ไพรบึง/ Phrai Bueng","postcode":[{"postcode":"33180","frieight":""}]},{"id":"R907","area":"ภูสิงห์/ Phu Sing","postcode":[{"postcode":"33140","frieight":""}]},{"id":"R896","area":"เมืองจันทร์/ Mueang Chan","postcode":[{"postcode":"33120","frieight":""}]},{"id":"R900","area":"เมืองศรีสะเกษ/ Mueang Si Sa Ket","postcode":[{"postcode":"33000","frieight":""}]},{"id":"R909","area":"ยางชุมน้อย/ Yang Chum Noi","postcode":[{"postcode":"33190","frieight":""}]},{"id":"R908","area":"ราษีไศล/ Rasi Salai","postcode":[{"postcode":"33160","frieight":""}]},{"id":"R906","area":"วังหิน/ Wang Hin","postcode":[{"postcode":"33270","frieight":""}]},{"id":"R893","area":"ศรีรัตนะ/ Si Rattana","postcode":[{"postcode":"33240","frieight":""}]},{"id":"R898","area":"ศิลาลาด/ Sila Lat","postcode":[{"postcode":"33160","frieight":""}]},{"id":"R911","area":"ห้วยทับทัน/ Huai Thap Than","postcode":[{"postcode":"33210","frieight":""}]},{"id":"R899","area":"อุทุมพรพิสัย/ Uthumphon Phisai","postcode":[{"postcode":"33120","frieight":""}]}]},{"id":"R1908814","city":"สกลนคร/ Sakon Nakhon","area":[{"id":"R467","area":"กุดบาก/ Kut Bak","postcode":[{"postcode":"47180","frieight":""}]},{"id":"R466","area":"กุสุมาลย์/ Kusuman","postcode":[{"postcode":"47210","frieight":""},{"postcode":"47230","frieight":""}]},{"id":"R473","area":"คำตากล้า/ Kham Ta Kla","postcode":[{"postcode":"47250","frieight":""}]},{"id":"R476","area":"โคกศรีสุพรรณ/ Khok Si Suphan","postcode":[{"postcode":"47280","frieight":""}]},{"id":"R479","area":"เจริญศิลป์/ Charoen Sin","postcode":[{"postcode":"47290","frieight":""}]},{"id":"R475","area":"เต่างอย/ Tao Ngoi","postcode":[{"postcode":"47260","frieight":""}]},{"id":"R474","area":"นิคมน้ำอูน/ Nikhom Nam Un","postcode":[{"postcode":"47270","frieight":""}]},{"id":"R472","area":"บ้านม่วง/ Ban Muang","postcode":[{"postcode":"47140","frieight":""}]},{"id":"R469","area":"พรรณานิคม/ Phanna Nikhom","postcode":[{"postcode":"47130","frieight":""},{"postcode":"47220","frieight":""}]},{"id":"R468","area":"พังโคน/ Phang Khon","postcode":[{"postcode":"47160","frieight":""}]},{"id":"R480","area":"โพนนาแก้ว/ Phon Na Kaeo","postcode":[{"postcode":"47230","frieight":""}]},{"id":"R463","area":"ภูพาน/ Phu Phan","postcode":[{"postcode":"47180","frieight":""}]},{"id":"R471","area":"เมืองสกลนคร/ Mueang Sakon Nakhon","postcode":[{"postcode":"47000","frieight":""},{"postcode":"47220","frieight":""},{"postcode":"47230","frieight":""}]},{"id":"R470","area":"วานรนิวาส/ Wanon Niwat","postcode":[{"postcode":"47120","frieight":""}]},{"id":"R465","area":"วาริชภูมิ/ Waritchaphum","postcode":[{"postcode":"47150","frieight":""}]},{"id":"R477","area":"สว่างแดนดิน/ Sawang Daen Din District","postcode":[{"postcode":"47110","frieight":""},{"postcode":"47240","frieight":""}]},{"id":"R464","area":"ส่องดาว/ Song Dao","postcode":[{"postcode":"47190","frieight":""}]},{"id":"R478","area":"อากาศอำนวย/ Akat Amnuai","postcode":[{"postcode":"47170","frieight":""}]}]},{"id":"R1908822","city":"สงขลา/ Songkhla","area":[{"id":"R632","area":"กระแสสินธุ์/ Krasae Sin","postcode":[{"postcode":"90270","frieight":""}]},{"id":"R631","area":"คลองหอยโข่ง/ Khlong Hoi Khong District","postcode":[{"postcode":"90110","frieight":""},{"postcode":"90115","frieight":""},{"postcode":"90230","frieight":""}]},{"id":"R636","area":"ควนเนียง/ Khuan Niang","postcode":[{"postcode":"90220","frieight":""}]},{"id":"R627","area":"จะนะ/ Chana","postcode":[{"postcode":"90130","frieight":""}]},{"id":"R633","area":"เทพา/ Thepha","postcode":[{"postcode":"90150","frieight":""},{"postcode":"90260","frieight":""}]},{"id":"R637","area":"นาทวี/ Na Thawi","postcode":[{"postcode":"90160","frieight":""}]},{"id":"R628","area":"นาหม่อม/ Na Mom","postcode":[{"postcode":"90310","frieight":""}]},{"id":"R629","area":"บางกล่ำ/ Bang Klam","postcode":[{"postcode":"90110","frieight":""}]},{"id":"R635","area":"เมืองสงขลา/ Mueang Songkhla","postcode":[{"postcode":"90000","frieight":""},{"postcode":"90100","frieight":""}]},{"id":"R638","area":"ระโนด/ Ranot","postcode":[{"postcode":"90140","frieight":""}]},{"id":"R640","area":"รัตภูมิ/ Rattaphum","postcode":[{"postcode":"90180","frieight":""},{"postcode":"90220","frieight":""}]},{"id":"R641","area":"สทิงพระ/ Sathing Phra","postcode":[{"postcode":"90190","frieight":""}]},{"id":"R639","area":"สะเดา/ Sadao","postcode":[{"postcode":"90120","frieight":""},{"postcode":"90170","frieight":""},{"postcode":"90240","frieight":""},{"postcode":"90320","frieight":""}]},{"id":"R634","area":"สะบ้าย้อย/ Saba Yoi","postcode":[{"postcode":"90210","frieight":""}]},{"id":"R630","area":"สิงหนคร/ Singhanakhon","postcode":[{"postcode":"90280","frieight":""},{"postcode":"90330","frieight":""}]},{"id":"R642","area":"หาดใหญ่/ Hat Yai","postcode":[{"postcode":"90110","frieight":""},{"postcode":"90111","frieight":""},{"postcode":"90112","frieight":""},{"postcode":"90113","frieight":""},{"postcode":"90114","frieight":""},{"postcode":"90230","frieight":""},{"postcode":"90250","frieight":""}]}]},{"id":"R1908819","city":"สตูล/ Satun","area":[{"id":"R388","area":"ควนกาหลง/ Khuan Kalong","postcode":[{"postcode":"91130","frieight":""}]},{"id":"R387","area":"ควนโดน/ Khuan Don","postcode":[{"postcode":"91160","frieight":""}]},{"id":"R391","area":"ท่าแพ/ Tha Phae","postcode":[{"postcode":"91150","frieight":""}]},{"id":"R392","area":"ทุ่งหว้า/ Thung Wa","postcode":[{"postcode":"91120","frieight":""}]},{"id":"R390","area":"มะนัง/ Manang","postcode":[{"postcode":"91130","frieight":""}]},{"id":"R386","area":"เมืองสตูล/ Mueang Satun","postcode":[{"postcode":"91000","frieight":""},{"postcode":"91110","frieight":""},{"postcode":"91140","frieight":""}]},{"id":"R389","area":"ละงู/ La-ngu","postcode":[{"postcode":"91110","frieight":""}]}]},{"id":"R1908815","city":"สมุทรปราการ/ Samut Prakan","area":[{"id":"R381","area":"บางบ่อ/ Bang Bo","postcode":[{"postcode":"10550","frieight":""},{"postcode":"10560","frieight":""}]},{"id":"R382","area":"บางพลี/ Bang Phli","postcode":[{"postcode":"10540","frieight":""},{"postcode":"10541","frieight":""}]},{"id":"R385","area":"บางเสาธง/ Bang Sao Thong","postcode":[{"postcode":"10570","frieight":""}]},{"id":"R383","area":"พระประแดง/ Phra Pradaeng","postcode":[{"postcode":"10130","frieight":""}]},{"id":"R384","area":"พระสมุทรเจดีย์/ Phra Samut Chedi","postcode":[{"postcode":"10290","frieight":""}]},{"id":"R380","area":"เมืองสมุทรปราการ/ Mueang Samut Prakan","postcode":[{"postcode":"10270","frieight":""},{"postcode":"10280","frieight":""}]}]},{"id":"R1908817","city":"สมุทรสงคราม/ Samut Songkhram","area":[{"id":"R228","area":"บางคนที/ Bang Khonthi","postcode":[{"postcode":"75120","frieight":""}]},{"id":"R230","area":"เมืองสมุทรสงคราม/ Mueang Samut Songkhram","postcode":[{"postcode":"75000","frieight":""}]},{"id":"R229","area":"อัมพวา/ Amphawa","postcode":[{"postcode":"75110","frieight":""}]}]},{"id":"R1908816","city":"สมุทรสาคร/ Samut Sakhon","area":[{"id":"R873","area":"กระทุ่มแบน/ Krathum Baen","postcode":[{"postcode":"74110","frieight":""},{"postcode":"74130","frieight":""}]},{"id":"R874","area":"บ้านแพ้ว/ Ban Phaeo","postcode":[{"postcode":"70210","frieight":""},{"postcode":"74120","frieight":""}]},{"id":"R872","area":"เมืองสมุทรสาคร/ Mueang Samut Sakhon","postcode":[{"postcode":"74000","frieight":""}]}]},{"id":"R2934605","city":"สระแก้ว/ Sa Kaeo","area":[{"id":"R497","area":"เขาฉกรรจ์/ Khao Chakan","postcode":[{"postcode":"27000","frieight":""}]},{"id":"R498","area":"คลองหาด/ Khlong Hat","postcode":[{"postcode":"27260","frieight":""}]},{"id":"R495","area":"โคกสูง/ Khok Sung","postcode":[{"postcode":"27120","frieight":""}]},{"id":"R499","area":"ตาพระยา/ Ta Phraya","postcode":[{"postcode":"27180","frieight":""}]},{"id":"R494","area":"เมืองสระแก้ว/ Mueang Sa Kaeo","postcode":[{"postcode":"27000","frieight":""}]},{"id":"R500","area":"วังน้ำเย็น/ Wang Nam Yen","postcode":[{"postcode":"27210","frieight":""}]},{"id":"R496","area":"วังสมบูรณ์/ Wang Sombun","postcode":[{"postcode":"27210","frieight":""},{"postcode":"27250","frieight":""}]},{"id":"R501","area":"วัฒนานคร/ Watthana Nakhon","postcode":[{"postcode":"27160","frieight":""}]},{"id":"R502","area":"อรัญประเทศ/ Aranyaprathet","postcode":[{"postcode":"27120","frieight":""}]}]},{"id":"R1908818","city":"สระบุรี/ Saraburi","area":[{"id":"R485","area":"แก่งคอย/ Kaeng Khoi","postcode":[{"postcode":"18110","frieight":""},{"postcode":"18260","frieight":""},{"postcode":"18270","frieight":""}]},{"id":"R492","area":"เฉลิมพระเกียรติ/ Chaloem Phra Kiat","postcode":[{"postcode":"18000","frieight":""},{"postcode":"18240","frieight":""}]},{"id":"R486","area":"ดอนพุด/ Don Phut","postcode":[{"postcode":"18210","frieight":""}]},{"id":"R487","area":"บ้านหมอ/ Ban Mo","postcode":[{"postcode":"18130","frieight":""},{"postcode":"18210","frieight":""},{"postcode":"18270","frieight":""}]},{"id":"R488","area":"พระพุทธบาท/ Phra Phutthabat","postcode":[{"postcode":"18120","frieight":""}]},{"id":"R481","area":"มวกเหล็ก/ Muak Lek","postcode":[{"postcode":"18180","frieight":""},{"postcode":"18220","frieight":""},{"postcode":"30130","frieight":""}]},{"id":"R493","area":"เมืองสระบุรี/ Mueang Saraburi","postcode":[{"postcode":"18000","frieight":""}]},{"id":"R483","area":"วังม่วง/ Wang Muang","postcode":[{"postcode":"18220","frieight":""}]},{"id":"R489","area":"วิหารแดง/ Wihan Daeng","postcode":[{"postcode":"18150","frieight":""}]},{"id":"R482","area":"เสาไห้/ Sao Hai","postcode":[{"postcode":"18160","frieight":""}]},{"id":"R490","area":"หนองแค/ Nong Khae","postcode":[{"postcode":"18140","frieight":""},{"postcode":"18230","frieight":""},{"postcode":"18250","frieight":""}]},{"id":"R80199930","area":"หนองแซง/ Nong Saeng","postcode":[{"postcode":"18170","frieight":""}]},{"id":"R484","area":"หนองโดน/ Nong Don","postcode":[{"postcode":"18190","frieight":""}]}]},{"id":"R1908820","city":"สิงห์บุรี/ Sing Buri","area":[{"id":"R623","area":"ค่ายบางระจัน/ Khai Bang Rachan","postcode":[{"postcode":"16150","frieight":""}]},{"id":"R624","area":"ท่าช้าง/ Tha Chang","postcode":[{"postcode":"16140","frieight":""}]},{"id":"R625","area":"บางระจัน/ Bang Rachan","postcode":[{"postcode":"16130","frieight":""}]},{"id":"R626","area":"พรหมบุรี/ Phrom Buri","postcode":[{"postcode":"16120","frieight":""},{"postcode":"16160","frieight":""},{"postcode":"99999","frieight":""}]},{"id":"R622","area":"เมืองสิงห์บุรี/ Mueang Sing Buri","postcode":[{"postcode":"16000","frieight":""}]},{"id":"R621","area":"อินทร์บุรี/ In Buri","postcode":[{"postcode":"16110","frieight":""}]}]},{"id":"R1908823","city":"สุโขทัย/ Sukhothai","area":[{"id":"R919","area":"กงไกรลาศ/ Kong Krailat","postcode":[{"postcode":"64170","frieight":""}]},{"id":"R920","area":"คีรีมาศ/ Khiri Mat","postcode":[{"postcode":"64160","frieight":""}]},{"id":"R921","area":"ทุ่งเสลี่ยม/ Thung Saliam","postcode":[{"postcode":"64150","frieight":""},{"postcode":"64230","frieight":""}]},{"id":"R922","area":"บ้านด่านลานหอย/ Ban Dan Lan Hoi","postcode":[{"postcode":"64140","frieight":""}]},{"id":"R914","area":"เมืองสุโขทัย/ Mueang Sukhothai","postcode":[{"postcode":"64000","frieight":""},{"postcode":"64210","frieight":""},{"postcode":"64220","frieight":""}]},{"id":"R915","area":"ศรีนคร/ Si Nakhon","postcode":[{"postcode":"64180","frieight":""}]},{"id":"R916","area":"ศรีสัชนาลัย/ Si Satchanalai","postcode":[{"postcode":"64130","frieight":""},{"postcode":"64190","frieight":""}]},{"id":"R917","area":"ศรีสำโรง/ Si Samrong","postcode":[{"postcode":"64120","frieight":""}]},{"id":"R918","area":"สวรรคโลก/ Sawankhalok","postcode":[{"postcode":"64110","frieight":""}]}]},{"id":"R1908824","city":"สุพรรณบุรี/ Suphanburi","area":[{"id":"R883","area":"ดอนเจดีย์/ Don Chedi","postcode":[{"postcode":"72170","frieight":""},{"postcode":"72250","frieight":""}]},{"id":"R884","area":"ด่านช้าง/ Dan Chang","postcode":[{"postcode":"72180","frieight":""}]},{"id":"R888","area":"เดิมบางนางบวช/ Doem Bang Nang Buat","postcode":[{"postcode":"72120","frieight":""}]},{"id":"R885","area":"บางปลาม้า/ Bang Pla Ma","postcode":[{"postcode":"72150","frieight":""}]},{"id":"R882","area":"เมืองสุพรรณบุรี/ Mueang Suphan Buri","postcode":[{"postcode":"72000","frieight":""},{"postcode":"72210","frieight":""},{"postcode":"72230","frieight":""}]},{"id":"R889","area":"ศรีประจันต์/ Si Prachan","postcode":[{"postcode":"72140","frieight":""}]},{"id":"R886","area":"สองพี่น้อง/ Song Phi Nong","postcode":[{"postcode":"71170","frieight":""},{"postcode":"72110","frieight":""},{"postcode":"72190","frieight":""}]},{"id":"R890","area":"สามชุก/ Sam Chuk","postcode":[{"postcode":"72130","frieight":""}]},{"id":"R887","area":"หนองหญ้าไซ/ Nong Ya Sai","postcode":[{"postcode":"72240","frieight":""}]},{"id":"R891","area":"อู่ทอง/ U Thong","postcode":[{"postcode":"71170","frieight":""},{"postcode":"72160","frieight":""},{"postcode":"72220","frieight":""}]}]},{"id":"R1908825","city":"สุราษฎร์ธานี/ Surat Thani","area":[{"id":"R54","area":"กาญจนดิษฐ์/ Kanchanadit","postcode":[{"postcode":"84160","frieight":""},{"postcode":"84290","frieight":""},{"postcode":"84340","frieight":""}]},{"id":"R52","area":"เกาะเต่า/ Koh Tao","postcode":[]},{"id":"R55","area":"เกาะพะงัน/ Ko Pha-ngan","postcode":[{"postcode":"84280","frieight":""},{"postcode":"84360","frieight":""}]},{"id":"R46","area":"เกาะสมุย/ Ko Samui","postcode":[{"postcode":"84140","frieight":""},{"postcode":"84220","frieight":""},{"postcode":"84310","frieight":""},{"postcode":"84320","frieight":""},{"postcode":"84330","frieight":""}]},{"id":"R66","area":"คีรีรัฐนิคม/ Khiri Rat  Nikhom","postcode":[{"postcode":"84180","frieight":""}]},{"id":"R56","area":"เคียนซา/ Khian Sa","postcode":[{"postcode":"84210","frieight":""},{"postcode":"84260","frieight":""}]},{"id":"R43","area":"ชัยบุรี/ Chai Buri","postcode":[{"postcode":"84350","frieight":""}]},{"id":"R44","area":"ไชยา/ Chaiya","postcode":[{"postcode":"84110","frieight":""}]},{"id":"R47","area":"ดอนสัก/ Don Sak","postcode":[{"postcode":"84160","frieight":""},{"postcode":"84220","frieight":""},{"postcode":"84340","frieight":""}]},{"id":"R48","area":"ท่าฉาง/ Tha Chang","postcode":[{"postcode":"84150","frieight":""}]},{"id":"R57","area":"ท่าชนะ/ Tha Chana","postcode":[{"postcode":"84170","frieight":""}]},{"id":"R64","area":"ท่าช้าง/ Tha Chang","postcode":[]},{"id":"R59","area":"บ้างตาขุน/ Ban Ta Khun","postcode":[]},{"id":"R49","area":"บ้านตาขุน/ Ban Ta Khun","postcode":[{"postcode":"84230","frieight":""}]},{"id":"R50","area":"บ้านนาเดิม/ Ban Na Doem","postcode":[{"postcode":"84240","frieight":""}]},{"id":"R61","area":"บ้านนาสาร/ Ban Na San","postcode":[{"postcode":"84120","frieight":""},{"postcode":"84240","frieight":""},{"postcode":"84270","frieight":""}]},{"id":"R58","area":"พนม/ Phanom","postcode":[{"postcode":"84250","frieight":""}]},{"id":"R62","area":"พระแสง/ Phrasaeng","postcode":[{"postcode":"84210","frieight":""}]},{"id":"R45","area":"พุนพิน/ Phunphin","postcode":[{"postcode":"84130","frieight":""}]},{"id":"R60","area":"เมืองสุราษฎร์ธานี/ Mueang Surat Thani","postcode":[{"postcode":"84000","frieight":""},{"postcode":"84100","frieight":""}]},{"id":"R51","area":"วิภาวดี/ Vibhavadi","postcode":[{"postcode":"84180","frieight":""}]},{"id":"R63","area":"เวียงสระ/ Wiang Sa","postcode":[{"postcode":"84190","frieight":""}]},{"id":"R53","area":"เวียงสา/ Wiang Sa","postcode":[]}]},{"id":"R1908826","city":"สุรินทร์/ Surin","area":[{"id":"R298","area":"กาบเชิง/ Kap Choeng","postcode":[{"postcode":"32210","frieight":""}]},{"id":"R305","area":"เขวาสินรินทร์/ Khwao Sinarin","postcode":[{"postcode":"32000","frieight":""}]},{"id":"R311","area":"จมพระ/ Chom Phra","postcode":[]},{"id":"R299","area":"จอมพระ/ Jom Phra","postcode":[{"postcode":"32180","frieight":""}]},{"id":"R300","area":"ชุมพลบุรี/ Chumphon Buri","postcode":[{"postcode":"32190","frieight":""}]},{"id":"R295","area":"ท่าตูม/ Tha Tum","postcode":[{"postcode":"32120","frieight":""}]},{"id":"R296","area":"โนนนารายณ์/ Non Narai","postcode":[{"postcode":"32130","frieight":""}]},{"id":"R306","area":"บัวเชด/ Buachet","postcode":[{"postcode":"32230","frieight":""}]},{"id":"R307","area":"ปราสาท/ Prasat","postcode":[{"postcode":"32140","frieight":""}]},{"id":"R310","area":"พนมดงรัก/ Phanom Dong Rak","postcode":[{"postcode":"32140","frieight":""}]},{"id":"R297","area":"เมืองสุรินทร์/ Mueang Surin","postcode":[{"postcode":"32000","frieight":""}]},{"id":"R308","area":"รัตนบุรี/ Rattanaburi","postcode":[{"postcode":"32130","frieight":""}]},{"id":"R309","area":"ลำดวน/ Lamduan","postcode":[{"postcode":"32220","frieight":""}]},{"id":"R304","area":"ศรีณรงค์/ Si Narong","postcode":[{"postcode":"32150","frieight":""}]},{"id":"R301","area":"ศีขรภูมิ/ Sikhoraphum","postcode":[{"postcode":"32110","frieight":""}]},{"id":"R302","area":"สนม/ Sanom","postcode":[{"postcode":"32160","frieight":""}]},{"id":"R294","area":"สังขะ/ Sangkha","postcode":[{"postcode":"32150","frieight":""}]},{"id":"R303","area":"สำโรงทาบ/ Samrong Thap","postcode":[{"postcode":"32170","frieight":""}]}]},{"id":"R1908795","city":"หนองคาย/ Nong Khai","area":[{"id":"R281","area":"เซกา/ Seka","postcode":[]},{"id":"R275","area":"โซ่พิสัย/ So Phisai","postcode":[]},{"id":"R292","area":"ท่าบ่อ/ Tha Bo","postcode":[{"postcode":"43110","frieight":""}]},{"id":"R291","area":"บึงกาฬ/ Bueng Kan","postcode":[]},{"id":"R287","area":"บึงโขงหลง/ Bueng Khong Long","postcode":[]},{"id":"R285","area":"บึงโขลงหลงฝBueng Khong Long","postcode":[]},{"id":"R274","area":"บุ่งคล้า/ Bung Khla","postcode":[]},{"id":"R286","area":"บุ่งคล้า/ Bung Khla","postcode":[]},{"id":"R290","area":"ปากคาด/ Pak Kad","postcode":[]},{"id":"R277","area":"เฝ้าไร่/ Fao Rai","postcode":[{"postcode":"43120","frieight":""}]},{"id":"R280","area":"พรเจริญ/ Porn Charoen","postcode":[]},{"id":"R284","area":"โพธิ์ตาก/ Pho Tak","postcode":[{"postcode":"43130","frieight":""}]},{"id":"R293","area":"โพนพิสัย/ Phon Phisai","postcode":[{"postcode":"43120","frieight":""}]},{"id":"R288","area":"เมืองหนองคาย/ Mueang Nong Khai","postcode":[{"postcode":"43000","frieight":""},{"postcode":"43100","frieight":""}]},{"id":"R289","area":"รัตนวาปี/ Rattanawapi","postcode":[{"postcode":"43120","frieight":""}]},{"id":"R276","area":"ศรีเชียงใหม่/ Si Chiang Mai","postcode":[{"postcode":"43130","frieight":""}]},{"id":"R279","area":"ศรีวิไล/ Sri Wilai","postcode":[]},{"id":"R273","area":"สระใคร/ Sakhrai","postcode":[{"postcode":"43100","frieight":""}]},{"id":"R283","area":"สระใคร/ Sakhrai","postcode":[]},{"id":"R278","area":"สระใคร่/ Sakhrai","postcode":[]},{"id":"R282","area":"สังคม/ Sangkhom","postcode":[{"postcode":"43160","frieight":""}]}]},{"id":"R1925819","city":"หนองบัวลำภู/ Nongbua Lamphu","area":[{"id":"R13","area":"กุดดินจี่ เก่ากลอย ดงสวรรค์/ Kuddinjww Gauogloy Dongsawan","postcode":[]},{"id":"R16","area":"นากลาง/ Na Klang","postcode":[{"postcode":"39170","frieight":""},{"postcode":"39350","frieight":""}]},{"id":"R20","area":"นาวัง/ Na Wang","postcode":[{"postcode":"39170","frieight":""}]},{"id":"R17","area":"โนนสัง/ Non Sang","postcode":[{"postcode":"39140","frieight":""}]},{"id":"R14","area":"ป่ากุดดินจี่/ Pa Guddingee","postcode":[]},{"id":"R15","area":"เมืองหนองบัวลำภู/ Nong Bua Lam Phu","postcode":[{"postcode":"39000","frieight":""}]},{"id":"R18","area":"ศรีบุญเรือง/ Si Bun Rueang","postcode":[{"postcode":"39180","frieight":""}]},{"id":"R19","area":"สุวรรณคูหา/ Suwannakhuha","postcode":[{"postcode":"39270","frieight":""}]}]},{"id":"R1908765","city":"อ่างทอง/ Ang Thong","area":[{"id":"R876","area":"ไชโย/ Chaiyo","postcode":[{"postcode":"14140","frieight":""}]},{"id":"R877","area":"ป่าโมก/ Pa Mok","postcode":[{"postcode":"14130","frieight":""}]},{"id":"R878","area":"โพธิ์ทอง/ Pho Thong","postcode":[{"postcode":"14120","frieight":""}]},{"id":"R875","area":"เมืองอ่างทอง/ Mueang Ang Thong","postcode":[{"postcode":"14000","frieight":""}]},{"id":"R879","area":"วิเศษชัยชาญ/ Wiset Chai Chan","postcode":[{"postcode":"14110","frieight":""}]},{"id":"R880","area":"สามโก้/ Samko","postcode":[{"postcode":"14160","frieight":""}]},{"id":"R881","area":"แสวงหา/ Sawaeng Ha","postcode":[{"postcode":"14150","frieight":""}]}]},{"id":"R2746948","city":"อำนาจเจริญ/ Amnat Charoen","area":[{"id":"R80199520","area":"ชานุมาน/ Chanuman","postcode":[{"postcode":"37210","frieight":""}]},{"id":"R80199519","area":"ปทุมราชวงศา/ Pathum Ratchawongsa","postcode":[{"postcode":"37110","frieight":""}]},{"id":"R80199515","area":"พนา/ Phana","postcode":[{"postcode":"37180","frieight":""}]},{"id":"R80199521","area":"เมืองอำนาจเจริญ/ Mueang Amnat Charoen","postcode":[{"postcode":"37000","frieight":""}]},{"id":"R80199518","area":"ลืออำนาจ/ Lue Amnat","postcode":[{"postcode":"37120","frieight":""}]},{"id":"R80199516","area":"เสนางคนิคม/ Senangkhanikhom","postcode":[{"postcode":"37290","frieight":""}]},{"id":"R80199517","area":"หัวตะพาน/ Hua Taphan","postcode":[{"postcode":"37240","frieight":""}]}]},{"id":"R1908831","city":"อุดรธานี/ Udon Thani","area":[{"id":"R432","area":"กุดจับ/ Kut Chap","postcode":[{"postcode":"41250","frieight":""}]},{"id":"R440","area":"กุมภวาปี/ Kumphawapi","postcode":[{"postcode":"41110","frieight":""},{"postcode":"41370","frieight":""}]},{"id":"R435","area":"กู่แก้ว/ Ku Kaeo","postcode":[{"postcode":"41130","frieight":""}]},{"id":"R447","area":"ไชยวาน/ Chai Wan","postcode":[{"postcode":"41290","frieight":""}]},{"id":"R448","area":"ทุ่งฝน/ Thung Fon","postcode":[{"postcode":"41310","frieight":""}]},{"id":"R441","area":"นายูง/ Na Yung","postcode":[{"postcode":"41380","frieight":""}]},{"id":"R449","area":"น้ำโสม/ Nam Som","postcode":[{"postcode":"41210","frieight":""}]},{"id":"R450","area":"โนนสะอาด/ Non Sa-at","postcode":[{"postcode":"41240","frieight":""}]},{"id":"R433","area":"บ้านดุง/ Ban Dung","postcode":[{"postcode":"41190","frieight":""}]},{"id":"R434","area":"บ้านผือ/ Ban Phue","postcode":[{"postcode":"41160","frieight":""}]},{"id":"R439","area":"ประจักษ์ศิลปาคม/ Prachaksinlapakhom","postcode":[{"postcode":"41110","frieight":""}]},{"id":"R442","area":"พิบูลย์รักษ์/ Phi Boon Rak","postcode":[{"postcode":"41130","frieight":""}]},{"id":"R446","area":"พิบูลรักษ์/ Phibun Rak","postcode":[]},{"id":"R451","area":"เพ็ญ/ Phen","postcode":[{"postcode":"41150","frieight":""}]},{"id":"R431","area":"เมืองอุดรธานี/ Mueang Udon Thani","postcode":[{"postcode":"41000","frieight":""},{"postcode":"41330","frieight":""}]},{"id":"R436","area":"วังสามหมอ/ Wang Sam Mo","postcode":[{"postcode":"41280","frieight":""}]},{"id":"R443","area":"ศรีธาตุ/ Si That","postcode":[{"postcode":"41230","frieight":""}]},{"id":"R444","area":"สร้างคอม/ Sang Khom","postcode":[{"postcode":"41260","frieight":""}]},{"id":"R438","area":"หนองวัวซอ/ Nong Wua So","postcode":[{"postcode":"41220","frieight":""},{"postcode":"41360","frieight":""}]},{"id":"R437","area":"หนองแสง/ Nong Saeng","postcode":[{"postcode":"41340","frieight":""}]},{"id":"R445","area":"หนองหาน/ Nong Han","postcode":[{"postcode":"41130","frieight":""},{"postcode":"41320","frieight":""}]}]},{"id":"R1908832","city":"อุตรดิตถ์/ Uttaradit","area":[{"id":"R68","area":"ตรอน/ Tron","postcode":[{"postcode":"53140","frieight":""}]},{"id":"R69","area":"ทองแสนขัน/ Thong Saen Khan","postcode":[{"postcode":"53230","frieight":""}]},{"id":"R72","area":"ท่าปลา/ Tha Pla","postcode":[{"postcode":"53110","frieight":""},{"postcode":"53150","frieight":""},{"postcode":"53190","frieight":""}]},{"id":"R70","area":"น้ำปาด/ Nam Pat","postcode":[{"postcode":"53110","frieight":""}]},{"id":"R71","area":"บ้านโคก/ Ban Khok","postcode":[{"postcode":"53180","frieight":""}]},{"id":"R73","area":"พิชัย/ Phichai","postcode":[{"postcode":"53120","frieight":""},{"postcode":"53220","frieight":""}]},{"id":"R74","area":"ฟากท่า/ Fak Tha","postcode":[{"postcode":"53160","frieight":""}]},{"id":"R67","area":"เมืองอุตรดิตถ์/ Mueang Uttaradit","postcode":[{"postcode":"53000","frieight":""},{"postcode":"53170","frieight":""}]},{"id":"R75","area":"ลับแล/ Laplae","postcode":[{"postcode":"53130","frieight":""},{"postcode":"53210","frieight":""}]}]},{"id":"R2934606","city":"อุทัยธานี/ Uthai Thani","area":[{"id":"R176","area":"เขาบางแกรก/ Kao Bang Kag","postcode":[]},{"id":"R186","area":"ทัพทัน/ Thap Than","postcode":[{"postcode":"61120","frieight":""}]},{"id":"R181","area":"บ้านไร่/ Ban Rai","postcode":[{"postcode":"61140","frieight":""},{"postcode":"61180","frieight":""}]},{"id":"R185","area":"บ้านใหม่คองเคียน/ Ban Mai Kong Kain","postcode":[]},{"id":"R179","area":"เมือง/ Mueang Uthai Thani","postcode":[]},{"id":"R180","area":"เมืองอุทัยธานี/ Mueang Uthai Thani","postcode":[{"postcode":"61000","frieight":""}]},{"id":"R182","area":"ลานสัก/ Lan Sak","postcode":[{"postcode":"61160","frieight":""}]},{"id":"R177","area":"วังหิน/ Wang Hin","postcode":[]},{"id":"R178","area":"สวนสัก/ Suan Sak","postcode":[]},{"id":"R183","area":"สว่างอารมณ์/ Sawang Arom","postcode":[{"postcode":"61150","frieight":""}]},{"id":"R174","area":"หนองขาหย่าง/ Nong Khayang","postcode":[{"postcode":"61130","frieight":""}]},{"id":"R184","area":"หนองฉาง/ Nong Chang","postcode":[{"postcode":"61110","frieight":""},{"postcode":"61170","frieight":""}]},{"id":"R175","area":"ห้วยคต/ Huai Khot","postcode":[{"postcode":"61170","frieight":""}]}]},{"id":"R1908830","city":"อุบลราชธานี/ Ubon Ratchathani","area":[{"id":"R169","area":"กุดข้าวปุ้น/ Kut Khaopun","postcode":[{"postcode":"34270","frieight":""}]},{"id":"R152","area":"เขมราฐ/ Khemarat","postcode":[{"postcode":"34170","frieight":""}]},{"id":"R159","area":"เขื่องใน/ Khueang Nai","postcode":[{"postcode":"34150","frieight":""},{"postcode":"34320","frieight":""}]},{"id":"R160","area":"โขงเจียม/ Khong Chiam","postcode":[{"postcode":"34220","frieight":""}]},{"id":"R150","area":"ดอนมดแดง/ Don Mot Daeng","postcode":[{"postcode":"34000","frieight":""}]},{"id":"R161","area":"เดชอุดม/ Det Udom","postcode":[{"postcode":"34160","frieight":""}]},{"id":"R162","area":"ตระการพืชผล/ Trakan Phuet Phon","postcode":[{"postcode":"34130","frieight":""}]},{"id":"R163","area":"ตาลสุม/ Tan Sum","postcode":[{"postcode":"34330","frieight":""}]},{"id":"R149","area":"ทุ่งศรีอุดม/ Thung Si Udom","postcode":[{"postcode":"34160","frieight":""}]},{"id":"R153","area":"นาจะหลวย/ Na Chaluai","postcode":[{"postcode":"34280","frieight":""}]},{"id":"R165","area":"นาตาล/ Na Tan","postcode":[{"postcode":"34170","frieight":""}]},{"id":"R164","area":"นาเยีย/ Na Yia","postcode":[{"postcode":"34160","frieight":""}]},{"id":"R168","area":"น้ำขุ่น/ Nam Khun","postcode":[{"postcode":"34260","frieight":""}]},{"id":"R170","area":"น้ำยืน/ Nam Yuen","postcode":[{"postcode":"34260","frieight":""}]},{"id":"R171","area":"บุณฑริก/ Buntharik","postcode":[{"postcode":"34230","frieight":""}]},{"id":"R156","area":"พิบูลมังสาหาร/ Phibun Mangsahan","postcode":[{"postcode":"34110","frieight":""}]},{"id":"R172","area":"โพธิ์ไทร/ Pho Sai","postcode":[{"postcode":"34340","frieight":""}]},{"id":"R157","area":"ม่วงสามสิบ/ Muang Sam Sip","postcode":[{"postcode":"34140","frieight":""}]},{"id":"R151","area":"เมืองอุบลราชธานี/ Mueang Ubon Ratchathani","postcode":[{"postcode":"34000","frieight":""}]},{"id":"R154","area":"วารินชำราบ/ Warin Chamrap","postcode":[{"postcode":"34190","frieight":""},{"postcode":"34310","frieight":""}]},{"id":"R158","area":"ศรีเมืองใหม่/ Si Mueang Mai","postcode":[{"postcode":"34250","frieight":""}]},{"id":"R167","area":"สว่างวีระวงศ์/ Sawang Wirawong","postcode":[{"postcode":"34190","frieight":""}]},{"id":"R166","area":"สำโรง/ Samrong","postcode":[{"postcode":"34360","frieight":""}]},{"id":"R155","area":"สิรินธร/ Sirindhorn","postcode":[{"postcode":"34350","frieight":""}]},{"id":"R173","area":"เหล่าเสือโก้ก/ Lao Suea Kok","postcode":[{"postcode":"34000","frieight":""}]}]}]